[
	{"postcode": "872", "placename": "ANANGU PITJANTJATJARA YANKUNYTJATJARA"},
	{"postcode": "872", "placename": "AYERS RANGE SOUTH"},
	{"postcode": "872", "placename": "DE ROSE HILL"},
	{"postcode": "872", "placename": "ERNABELLA"},
	{"postcode": "872", "placename": "ERNABELLA (PUKATJA)"},
	{"postcode": "872", "placename": "FREGON"},
	{"postcode": "872", "placename": "INDULKANA"},
	{"postcode": "872", "placename": "INDULKANA (IWANTJA)"},
	{"postcode": "872", "placename": "IWANTJA"},
	{"postcode": "872", "placename": "KALKA"},
	{"postcode": "872", "placename": "KALTJITI"},
	{"postcode": "872", "placename": "KANPI"},
	{"postcode": "872", "placename": "LAMBINA"},
	{"postcode": "872", "placename": "MIMILI"},
	{"postcode": "872", "placename": "MURPUTJA"},
	{"postcode": "872", "placename": "NYAPARI"},
	{"postcode": "872", "placename": "PIPALYATJARA"},
	{"postcode": "872", "placename": "PUKATJA"},
	{"postcode": "872", "placename": "TIEYON"},
	{"postcode": "872", "placename": "UMUWA"},
	{"postcode": "872", "placename": "WATARRU"},
	{"postcode": "872", "placename": "WATINUMA"},
	{"postcode": "872", "placename": "YUNYARINYI"},
	{"postcode": "5000", "placename": "ADELAIDE"},
	{"postcode": "5000", "placename": "ADELAIDE BC"},
	{"postcode": "5000", "placename": "CITY WEST CAMPUS"},
	{"postcode": "5000", "placename": "HALIFAX STREET"},
	{"postcode": "5000", "placename": "HUTT STREET"},
	{"postcode": "5000", "placename": "PARLIAMENT HOUSE"},
	{"postcode": "5000", "placename": "RUNDLE MALL"},
	{"postcode": "5000", "placename": "STATION ARCADE"},
	{"postcode": "5000", "placename": "STURT STREET"},
	{"postcode": "5001", "placename": "ADELAIDE"},
	{"postcode": "5005", "placename": "ADELAIDE UNIVERSITY"},
	{"postcode": "5005", "placename": "THE UNIVERSITY OF ADELAIDE"},
	{"postcode": "5005", "placename": "UNIVERSITY OF ADELAIDE"},
	{"postcode": "5006", "placename": "NORTH ADELAIDE"},
	{"postcode": "5006", "placename": "NORTH ADELAIDE MELBOURNE ST"},
	{"postcode": "5007", "placename": "BOWDEN"},
	{"postcode": "5007", "placename": "BROMPTON"},
	{"postcode": "5007", "placename": "HINDMARSH"},
	{"postcode": "5007", "placename": "WELLAND"},
	{"postcode": "5007", "placename": "WEST HINDMARSH"},
	{"postcode": "5008", "placename": "CROYDON"},
	{"postcode": "5008", "placename": "CROYDON PARK"},
	{"postcode": "5008", "placename": "CROYDON PARK SOUTH"},
	{"postcode": "5008", "placename": "DEVON PARK"},
	{"postcode": "5008", "placename": "DUDLEY PARK"},
	{"postcode": "5008", "placename": "RENOWN PARK"},
	{"postcode": "5008", "placename": "RIDLEYTON"},
	{"postcode": "5008", "placename": "WEST CROYDON"},
	{"postcode": "5009", "placename": "ALLENBY GARDENS"},
	{"postcode": "5009", "placename": "BEVERLEY"},
	{"postcode": "5009", "placename": "KILKENNY"},
	{"postcode": "5010", "placename": "ANGLE PARK"},
	{"postcode": "5010", "placename": "FERRYDEN PARK"},
	{"postcode": "5010", "placename": "REGENCY PARK"},
	{"postcode": "5010", "placename": "REGENCY PARK BC"},
	{"postcode": "5011", "placename": "ST CLAIR"},
	{"postcode": "5011", "placename": "ST CLAIRE"},
	{"postcode": "5011", "placename": "WOODVILLE"},
	{"postcode": "5011", "placename": "WOODVILLE PARK"},
	{"postcode": "5011", "placename": "WOODVILLE SOUTH"},
	{"postcode": "5011", "placename": "WOODVILLE WEST"},
	{"postcode": "5012", "placename": "ATHOL PARK"},
	{"postcode": "5012", "placename": "MANSFIELD PARK"},
	{"postcode": "5012", "placename": "WOODVILLE GARDENS"},
	{"postcode": "5012", "placename": "WOODVILLE NORTH"},
	{"postcode": "5013", "placename": "GILLMAN"},
	{"postcode": "5013", "placename": "OTTOWAY"},
	{"postcode": "5013", "placename": "PENNINGTON"},
	{"postcode": "5013", "placename": "ROSEWATER"},
	{"postcode": "5013", "placename": "ROSEWATER EAST"},
	{"postcode": "5013", "placename": "WINGFIELD"},
	{"postcode": "5014", "placename": "ALBERT PARK"},
	{"postcode": "5014", "placename": "ALBERTON"},
	{"postcode": "5014", "placename": "CHELTENHAM"},
	{"postcode": "5014", "placename": "HENDON"},
	{"postcode": "5014", "placename": "QUEENSTOWN"},
	{"postcode": "5014", "placename": "ROYAL PARK"},
	{"postcode": "5015", "placename": "BIRKENHEAD"},
	{"postcode": "5015", "placename": "ETHELTON"},
	{"postcode": "5015", "placename": "GLANVILLE"},
	{"postcode": "5015", "placename": "NEW PORT"},
	{"postcode": "5015", "placename": "PORT ADELAIDE"},
	{"postcode": "5015", "placename": "PORT ADELAIDE BC"},
	{"postcode": "5015", "placename": "PORT ADELAIDE DC"},
	{"postcode": "5016", "placename": "LARGS BAY"},
	{"postcode": "5016", "placename": "LARGS NORTH"},
	{"postcode": "5016", "placename": "PETERHEAD"},
	{"postcode": "5017", "placename": "OSBORNE"},
	{"postcode": "5017", "placename": "TAPEROO"},
	{"postcode": "5018", "placename": "NORTH HAVEN"},
	{"postcode": "5018", "placename": "OUTER HARBOR"},
	{"postcode": "5019", "placename": "EXETER"},
	{"postcode": "5019", "placename": "SEMAPHORE"},
	{"postcode": "5019", "placename": "SEMAPHORE PARK"},
	{"postcode": "5019", "placename": "SEMAPHORE SOUTH"},
	{"postcode": "5020", "placename": "WEST LAKES SHORE"},
	{"postcode": "5021", "placename": "WEST LAKES"},
	{"postcode": "5022", "placename": "GRANGE"},
	{"postcode": "5022", "placename": "HENLEY BEACH"},
	{"postcode": "5022", "placename": "HENLEY BEACH SOUTH"},
	{"postcode": "5022", "placename": "KIRKCALDY"},
	{"postcode": "5022", "placename": "TENNYSON"},
	{"postcode": "5023", "placename": "FINDON"},
	{"postcode": "5023", "placename": "SEATON"},
	{"postcode": "5023", "placename": "SEATON NORTH"},
	{"postcode": "5024", "placename": "FULHAM"},
	{"postcode": "5024", "placename": "FULHAM GARDENS"},
	{"postcode": "5024", "placename": "WEST BEACH"},
	{"postcode": "5025", "placename": "FLINDERS PARK"},
	{"postcode": "5025", "placename": "KIDMAN PARK"},
	{"postcode": "5031", "placename": "MILE END"},
	{"postcode": "5031", "placename": "MILE END SOUTH"},
	{"postcode": "5031", "placename": "THEBARTON"},
	{"postcode": "5031", "placename": "TORRENSVILLE"},
	{"postcode": "5031", "placename": "TORRENSVILLE PLAZA"},
	{"postcode": "5032", "placename": "BROOKLYN PARK"},
	{"postcode": "5032", "placename": "LOCKLEYS"},
	{"postcode": "5032", "placename": "UNDERDALE"},
	{"postcode": "5033", "placename": "COWANDILLA"},
	{"postcode": "5033", "placename": "HILTON"},
	{"postcode": "5033", "placename": "HILTON PLAZA"},
	{"postcode": "5033", "placename": "MARLESTON"},
	{"postcode": "5033", "placename": "MARLESTON DC"},
	{"postcode": "5033", "placename": "RICHMOND"},
	{"postcode": "5033", "placename": "WEST RICHMOND"},
	{"postcode": "5034", "placename": "CLARENCE PARK"},
	{"postcode": "5034", "placename": "GOODWOOD"},
	{"postcode": "5034", "placename": "KINGS PARK"},
	{"postcode": "5034", "placename": "MILLSWOOD"},
	{"postcode": "5034", "placename": "WAYVILLE"},
	{"postcode": "5035", "placename": "ASHFORD"},
	{"postcode": "5035", "placename": "BLACK FOREST"},
	{"postcode": "5035", "placename": "EVERARD PARK"},
	{"postcode": "5035", "placename": "FORESTVILLE"},
	{"postcode": "5035", "placename": "KESWICK"},
	{"postcode": "5035", "placename": "KESWICK TERMINAL"},
	{"postcode": "5037", "placename": "GLANDORE"},
	{"postcode": "5037", "placename": "KURRALTA PARK"},
	{"postcode": "5037", "placename": "NETLEY"},
	{"postcode": "5037", "placename": "NORTH PLYMPTON"},
	{"postcode": "5038", "placename": "CAMDEN PARK"},
	{"postcode": "5038", "placename": "PLYMPTON"},
	{"postcode": "5038", "placename": "PLYMPTON PARK"},
	{"postcode": "5038", "placename": "SOUTH PLYMPTON"},
	{"postcode": "5039", "placename": "CLARENCE GARDENS"},
	{"postcode": "5039", "placename": "EDWARDSTOWN"},
	{"postcode": "5039", "placename": "MELROSE PARK"},
	{"postcode": "5039", "placename": "MELROSE PARK DC"},
	{"postcode": "5040", "placename": "NOVAR GARDENS"},
	{"postcode": "5041", "placename": "COLONEL LIGHT GARDENS"},
	{"postcode": "5041", "placename": "CUMBERLAND PARK"},
	{"postcode": "5041", "placename": "DAW PARK"},
	{"postcode": "5041", "placename": "PANORAMA"},
	{"postcode": "5041", "placename": "WESTBOURNE PARK"},
	{"postcode": "5042", "placename": "BEDFORD PARK"},
	{"postcode": "5042", "placename": "CLOVELLY PARK"},
	{"postcode": "5042", "placename": "FLINDERS UNIVERSITY"},
	{"postcode": "5042", "placename": "PASADENA"},
	{"postcode": "5042", "placename": "ST MARYS"},
	{"postcode": "5042", "placename": "TONSLEY"},
	{"postcode": "5043", "placename": "ASCOT PARK"},
	{"postcode": "5043", "placename": "MARION"},
	{"postcode": "5043", "placename": "MITCHELL PARK"},
	{"postcode": "5043", "placename": "MORPHETTVILLE"},
	{"postcode": "5043", "placename": "PARK HOLME"},
	{"postcode": "5044", "placename": "GLENGOWRIE"},
	{"postcode": "5044", "placename": "SOMERTON PARK"},
	{"postcode": "5045", "placename": "GLENELG"},
	{"postcode": "5045", "placename": "GLENELG EAST"},
	{"postcode": "5045", "placename": "GLENELG JETTY ROAD"},
	{"postcode": "5045", "placename": "GLENELG NORTH"},
	{"postcode": "5045", "placename": "GLENELG SOUTH"},
	{"postcode": "5046", "placename": "OAKLANDS PARK"},
	{"postcode": "5046", "placename": "WARRADALE"},
	{"postcode": "5046", "placename": "WARRADALE NORTH"},
	{"postcode": "5047", "placename": "DARLINGTON"},
	{"postcode": "5047", "placename": "SEACOMBE GARDENS"},
	{"postcode": "5047", "placename": "SEACOMBE HEIGHTS"},
	{"postcode": "5047", "placename": "STURT"},
	{"postcode": "5048", "placename": "BRIGHTON"},
	{"postcode": "5048", "placename": "DOVER GARDENS"},
	{"postcode": "5048", "placename": "HOVE"},
	{"postcode": "5048", "placename": "NORTH BRIGHTON"},
	{"postcode": "5048", "placename": "SOUTH BRIGHTON"},
	{"postcode": "5049", "placename": "KINGSTON PARK"},
	{"postcode": "5049", "placename": "MARINO"},
	{"postcode": "5049", "placename": "SEACLIFF"},
	{"postcode": "5049", "placename": "SEACLIFF PARK"},
	{"postcode": "5049", "placename": "SEAVIEW DOWNS"},
	{"postcode": "5050", "placename": "BELLEVUE HEIGHTS"},
	{"postcode": "5050", "placename": "EDEN HILLS"},
	{"postcode": "5051", "placename": "BLACKWOOD"},
	{"postcode": "5051", "placename": "COROMANDEL VALLEY"},
	{"postcode": "5051", "placename": "CRAIGBURN FARM"},
	{"postcode": "5051", "placename": "HAWTHORNDENE"},
	{"postcode": "5052", "placename": "BELAIR"},
	{"postcode": "5052", "placename": "GLENALTA"},
	{"postcode": "5061", "placename": "HYDE PARK"},
	{"postcode": "5061", "placename": "MALVERN"},
	{"postcode": "5061", "placename": "UNLEY"},
	{"postcode": "5061", "placename": "UNLEY BC"},
	{"postcode": "5061", "placename": "UNLEY DC"},
	{"postcode": "5061", "placename": "UNLEY PARK"},
	{"postcode": "5062", "placename": "BROWN HILL CREEK"},
	{"postcode": "5062", "placename": "CLAPHAM"},
	{"postcode": "5062", "placename": "HAWTHORN"},
	{"postcode": "5062", "placename": "KINGSWOOD"},
	{"postcode": "5062", "placename": "LOWER MITCHAM"},
	{"postcode": "5062", "placename": "LYNTON"},
	{"postcode": "5062", "placename": "MITCHAM"},
	{"postcode": "5062", "placename": "MITCHAM SHOPPING CENTRE"},
	{"postcode": "5062", "placename": "NETHERBY"},
	{"postcode": "5062", "placename": "SPRINGFIELD"},
	{"postcode": "5062", "placename": "TORRENS PARK"},
	{"postcode": "5063", "placename": "EASTWOOD"},
	{"postcode": "5063", "placename": "FREWVILLE"},
	{"postcode": "5063", "placename": "FULLARTON"},
	{"postcode": "5063", "placename": "HIGHGATE"},
	{"postcode": "5063", "placename": "PARKSIDE"},
	{"postcode": "5064", "placename": "GLEN OSMOND"},
	{"postcode": "5064", "placename": "GLENUNGA"},
	{"postcode": "5064", "placename": "MOUNT OSMOND"},
	{"postcode": "5064", "placename": "MYRTLE BANK"},
	{"postcode": "5064", "placename": "ST GEORGES"},
	{"postcode": "5064", "placename": "URRBRAE"},
	{"postcode": "5065", "placename": "DULWICH"},
	{"postcode": "5065", "placename": "GLENSIDE"},
	{"postcode": "5065", "placename": "LINDEN PARK"},
	{"postcode": "5065", "placename": "TOORAK GARDENS"},
	{"postcode": "5065", "placename": "TUSMORE"},
	{"postcode": "5066", "placename": "BEAUMONT"},
	{"postcode": "5066", "placename": "BURNSIDE"},
	{"postcode": "5066", "placename": "ERINDALE"},
	{"postcode": "5066", "placename": "HAZELWOOD PARK"},
	{"postcode": "5066", "placename": "STONYFELL"},
	{"postcode": "5066", "placename": "WATERFALL GULLY"},
	{"postcode": "5066", "placename": "WATTLE PARK"},
	{"postcode": "5067", "placename": "BEULAH PARK"},
	{"postcode": "5067", "placename": "KENT TOWN"},
	{"postcode": "5067", "placename": "NORWOOD"},
	{"postcode": "5067", "placename": "NORWOOD SOUTH"},
	{"postcode": "5067", "placename": "ROSE PARK"},
	{"postcode": "5068", "placename": "HEATHPOOL"},
	{"postcode": "5068", "placename": "KENSINGTON"},
	{"postcode": "5068", "placename": "KENSINGTON GARDENS"},
	{"postcode": "5068", "placename": "KENSINGTON PARK"},
	{"postcode": "5068", "placename": "LEABROOK"},
	{"postcode": "5068", "placename": "MARRYATVILLE"},
	{"postcode": "5068", "placename": "ST MORRIS"},
	{"postcode": "5068", "placename": "TRINITY GARDENS"},
	{"postcode": "5069", "placename": "COLLEGE PARK"},
	{"postcode": "5069", "placename": "EVANDALE"},
	{"postcode": "5069", "placename": "HACKNEY"},
	{"postcode": "5069", "placename": "MAYLANDS"},
	{"postcode": "5069", "placename": "ST PETERS"},
	{"postcode": "5069", "placename": "STEPNEY"},
	{"postcode": "5070", "placename": "FELIXSTOW"},
	{"postcode": "5070", "placename": "FIRLE"},
	{"postcode": "5070", "placename": "GLYNDE"},
	{"postcode": "5070", "placename": "GLYNDE DC"},
	{"postcode": "5070", "placename": "GLYNDE PLAZA"},
	{"postcode": "5070", "placename": "JOSLIN"},
	{"postcode": "5070", "placename": "MARDEN"},
	{"postcode": "5070", "placename": "PAYNEHAM"},
	{"postcode": "5070", "placename": "PAYNEHAM SOUTH"},
	{"postcode": "5070", "placename": "ROYSTON PARK"},
	{"postcode": "5071", "placename": "KENT TOWN"},
	{"postcode": "5071", "placename": "KENT TOWN DC"},
	{"postcode": "5072", "placename": "AULDANA"},
	{"postcode": "5072", "placename": "MAGILL"},
	{"postcode": "5072", "placename": "MAGILL NORTH"},
	{"postcode": "5072", "placename": "MAGILL SOUTH"},
	{"postcode": "5072", "placename": "ROSSLYN PARK"},
	{"postcode": "5072", "placename": "SKYE"},
	{"postcode": "5072", "placename": "TERINGIE"},
	{"postcode": "5072", "placename": "WOODFORDE"},
	{"postcode": "5073", "placename": "HECTORVILLE"},
	{"postcode": "5073", "placename": "ROSTREVOR"},
	{"postcode": "5073", "placename": "TRANMERE"},
	{"postcode": "5073", "placename": "TRANMERE NORTH"},
	{"postcode": "5074", "placename": "CAMPBELLTOWN"},
	{"postcode": "5074", "placename": "NEWTON"},
	{"postcode": "5075", "placename": "DERNANCOURT"},
	{"postcode": "5075", "placename": "PARADISE"},
	{"postcode": "5076", "placename": "ATHELSTONE"},
	{"postcode": "5076", "placename": "CASTAMBUL"},
	{"postcode": "5081", "placename": "COLLINSWOOD"},
	{"postcode": "5081", "placename": "GILBERTON"},
	{"postcode": "5081", "placename": "MEDINDIE"},
	{"postcode": "5081", "placename": "MEDINDIE GARDENS"},
	{"postcode": "5081", "placename": "VALE PARK"},
	{"postcode": "5081", "placename": "WALKERVILLE"},
	{"postcode": "5082", "placename": "FITZROY"},
	{"postcode": "5082", "placename": "OVINGHAM"},
	{"postcode": "5082", "placename": "PROSPECT"},
	{"postcode": "5082", "placename": "PROSPECT EAST"},
	{"postcode": "5082", "placename": "PROSPECT WEST"},
	{"postcode": "5082", "placename": "THORNGATE"},
	{"postcode": "5083", "placename": "BROADVIEW"},
	{"postcode": "5083", "placename": "NAILSWORTH"},
	{"postcode": "5083", "placename": "SEFTON PARK"},
	{"postcode": "5084", "placename": "BLAIR ATHOL"},
	{"postcode": "5084", "placename": "BLAIR ATHOL WEST"},
	{"postcode": "5084", "placename": "KILBURN"},
	{"postcode": "5084", "placename": "KILBURN NORTH"},
	{"postcode": "5085", "placename": "CLEARVIEW"},
	{"postcode": "5085", "placename": "ENFIELD"},
	{"postcode": "5085", "placename": "ENFIELD PLAZA"},
	{"postcode": "5085", "placename": "LIGHTSVIEW"},
	{"postcode": "5085", "placename": "NORTHFIELD"},
	{"postcode": "5085", "placename": "NORTHGATE"},
	{"postcode": "5086", "placename": "GILLES PLAINS"},
	{"postcode": "5086", "placename": "GREENACRES"},
	{"postcode": "5086", "placename": "HAMPSTEAD GARDENS"},
	{"postcode": "5086", "placename": "HILLCREST"},
	{"postcode": "5086", "placename": "MANNINGHAM"},
	{"postcode": "5086", "placename": "OAKDEN"},
	{"postcode": "5087", "placename": "KLEMZIG"},
	{"postcode": "5087", "placename": "WINDSOR GARDENS"},
	{"postcode": "5088", "placename": "HOLDEN HILL"},
	{"postcode": "5089", "placename": "HIGHBURY"},
	{"postcode": "5090", "placename": "HOPE VALLEY"},
	{"postcode": "5091", "placename": "BANKSIA PARK"},
	{"postcode": "5091", "placename": "TEA TREE GULLY"},
	{"postcode": "5091", "placename": "VISTA"},
	{"postcode": "5092", "placename": "MODBURY"},
	{"postcode": "5092", "placename": "MODBURY HEIGHTS"},
	{"postcode": "5092", "placename": "MODBURY NORTH"},
	{"postcode": "5092", "placename": "MODBURY NORTH DC"},
	{"postcode": "5093", "placename": "PARA VISTA"},
	{"postcode": "5093", "placename": "VALLEY VIEW"},
	{"postcode": "5094", "placename": "CAVAN"},
	{"postcode": "5094", "placename": "DRY CREEK"},
	{"postcode": "5094", "placename": "GEPPS CROSS"},
	{"postcode": "5095", "placename": "MAWSON LAKES"},
	{"postcode": "5095", "placename": "POORAKA"},
	{"postcode": "5095", "placename": "THE LEVELS"},
	{"postcode": "5096", "placename": "GULFVIEW HEIGHTS"},
	{"postcode": "5096", "placename": "PARA HILLS"},
	{"postcode": "5096", "placename": "PARA HILLS WEST"},
	{"postcode": "5097", "placename": "REDWOOD PARK"},
	{"postcode": "5097", "placename": "RIDGEHAVEN"},
	{"postcode": "5097", "placename": "ST AGNES"},
	{"postcode": "5098", "placename": "INGLE FARM"},
	{"postcode": "5098", "placename": "WALKLEY HEIGHTS"},
	{"postcode": "5106", "placename": "PARAFIELD"},
	{"postcode": "5106", "placename": "PARAFIELD AIRPORT"},
	{"postcode": "5106", "placename": "SALISBURY SOUTH"},
	{"postcode": "5106", "placename": "SALISBURY SOUTH BC"},
	{"postcode": "5106", "placename": "SALISBURY SOUTH DC"},
	{"postcode": "5107", "placename": "GREEN FIELDS"},
	{"postcode": "5107", "placename": "PARAFIELD GARDENS"},
	{"postcode": "5108", "placename": "PARALOWIE"},
	{"postcode": "5108", "placename": "SALISBURY"},
	{"postcode": "5108", "placename": "SALISBURY DOWNS"},
	{"postcode": "5108", "placename": "SALISBURY NORTH"},
	{"postcode": "5108", "placename": "SALISBURY NORTH WHITES ROAD"},
	{"postcode": "5109", "placename": "BRAHMA LODGE"},
	{"postcode": "5109", "placename": "SALISBURY EAST"},
	{"postcode": "5109", "placename": "SALISBURY EAST NORTHBRI AV"},
	{"postcode": "5109", "placename": "SALISBURY EAST NORTHBRI AVE"},
	{"postcode": "5109", "placename": "SALISBURY HEIGHTS"},
	{"postcode": "5109", "placename": "SALISBURY PARK"},
	{"postcode": "5109", "placename": "SALISBURY PLAIN"},
	{"postcode": "5110", "placename": "BOLIVAR"},
	{"postcode": "5110", "placename": "BURTON"},
	{"postcode": "5110", "placename": "DIREK"},
	{"postcode": "5110", "placename": "GLOBE DERBY PARK"},
	{"postcode": "5110", "placename": "ST KILDA"},
	{"postcode": "5110", "placename": "WATERLOO CORNER"},
	{"postcode": "5111", "placename": "EDINBURGH"},
	{"postcode": "5111", "placename": "EDINBURGH RAAF"},
	{"postcode": "5112", "placename": "ELIZABETH"},
	{"postcode": "5112", "placename": "ELIZABETH EAST"},
	{"postcode": "5112", "placename": "ELIZABETH GROVE"},
	{"postcode": "5112", "placename": "ELIZABETH SOUTH"},
	{"postcode": "5112", "placename": "ELIZABETH VALE"},
	{"postcode": "5112", "placename": "HILLBANK"},
	{"postcode": "5113", "placename": "DAVOREN PARK"},
	{"postcode": "5113", "placename": "DAVOREN PARK NORTH"},
	{"postcode": "5113", "placename": "DAVOREN PARK SOUTH"},
	{"postcode": "5113", "placename": "EDINBURGH NORTH"},
	{"postcode": "5113", "placename": "ELIZABETH DOWNS"},
	{"postcode": "5113", "placename": "ELIZABETH NORTH"},
	{"postcode": "5113", "placename": "ELIZABETH PARK"},
	{"postcode": "5113", "placename": "ELIZABETH WEST"},
	{"postcode": "5113", "placename": "ELIZABETH WEST DC"},
	{"postcode": "5114", "placename": "ANDREWS FARM"},
	{"postcode": "5114", "placename": "BLAKEVIEW"},
	{"postcode": "5114", "placename": "CRAIGMORE"},
	{"postcode": "5114", "placename": "GOULD CREEK"},
	{"postcode": "5114", "placename": "HUMBUG SCRUB"},
	{"postcode": "5114", "placename": "ONE TREE HILL"},
	{"postcode": "5114", "placename": "SAMPSON FLAT"},
	{"postcode": "5114", "placename": "SMITHFIELD"},
	{"postcode": "5114", "placename": "SMITHFIELD PLAINS"},
	{"postcode": "5114", "placename": "SMITHFIELD WEST"},
	{"postcode": "5114", "placename": "ULEYBURY"},
	{"postcode": "5114", "placename": "YATTALUNGA"},
	{"postcode": "5115", "placename": "KUDLA"},
	{"postcode": "5115", "placename": "MUNNO PARA"},
	{"postcode": "5115", "placename": "MUNNO PARA DOWNS"},
	{"postcode": "5115", "placename": "MUNNO PARA WEST"},
	{"postcode": "5116", "placename": "EVANSTON"},
	{"postcode": "5116", "placename": "EVANSTON GARDENS"},
	{"postcode": "5116", "placename": "EVANSTON PARK"},
	{"postcode": "5116", "placename": "EVANSTON SOUTH"},
	{"postcode": "5116", "placename": "HILLIER"},
	{"postcode": "5117", "placename": "ANGLE VALE"},
	{"postcode": "5118", "placename": "BIBARINGA"},
	{"postcode": "5118", "placename": "BUCHFELDE"},
	{"postcode": "5118", "placename": "CONCORDIA"},
	{"postcode": "5118", "placename": "GAWLER"},
	{"postcode": "5118", "placename": "GAWLER BELT"},
	{"postcode": "5118", "placename": "GAWLER EAST"},
	{"postcode": "5118", "placename": "GAWLER RIVER"},
	{"postcode": "5118", "placename": "GAWLER SOUTH"},
	{"postcode": "5118", "placename": "GAWLER WEST"},
	{"postcode": "5118", "placename": "HEWETT"},
	{"postcode": "5118", "placename": "KALBEEBA"},
	{"postcode": "5118", "placename": "KANGAROO FLAT"},
	{"postcode": "5118", "placename": "KINGSFORD"},
	{"postcode": "5118", "placename": "REID"},
	{"postcode": "5118", "placename": "WARD BELT"},
	{"postcode": "5118", "placename": "WILLASTON"},
	{"postcode": "5120", "placename": "BUCKLAND PARK"},
	{"postcode": "5120", "placename": "VIRGINIA"},
	{"postcode": "5121", "placename": "EYRE"},
	{"postcode": "5121", "placename": "MACDONALD PARK"},
	{"postcode": "5121", "placename": "PENFIELD"},
	{"postcode": "5121", "placename": "PENFIELD GARDENS"},
	{"postcode": "5125", "placename": "GOLDEN GROVE"},
	{"postcode": "5125", "placename": "GOLDEN GROVE VILLAGE"},
	{"postcode": "5125", "placename": "GREENWITH"},
	{"postcode": "5126", "placename": "FAIRVIEW PARK"},
	{"postcode": "5126", "placename": "SURREY DOWNS"},
	{"postcode": "5126", "placename": "YATALA VALE"},
	{"postcode": "5127", "placename": "WYNN VALE"},
	{"postcode": "5131", "placename": "HOUGHTON"},
	{"postcode": "5131", "placename": "LOWER HERMITAGE"},
	{"postcode": "5131", "placename": "UPPER HERMITAGE"},
	{"postcode": "5132", "placename": "PARACOMBE"},
	{"postcode": "5133", "placename": "INGLEWOOD"},
	{"postcode": "5134", "placename": "CHERRYVILLE"},
	{"postcode": "5134", "placename": "MONTACUTE"},
	{"postcode": "5136", "placename": "NORTON SUMMIT"},
	{"postcode": "5137", "placename": "ASHTON"},
	{"postcode": "5137", "placename": "MARBLE HILL"},
	{"postcode": "5138", "placename": "BASKET RANGE"},
	{"postcode": "5139", "placename": "FOREST RANGE"},
	{"postcode": "5140", "placename": "GREENHILL"},
	{"postcode": "5141", "placename": "HORSNELL GULLY"},
	{"postcode": "5141", "placename": "SUMMERTOWN"},
	{"postcode": "5142", "placename": "URAIDLA"},
	{"postcode": "5144", "placename": "CAREY GULLY"},
	{"postcode": "5150", "placename": "EAGLE ON THE HILL"},
	{"postcode": "5150", "placename": "LEAWOOD GARDENS"},
	{"postcode": "5151", "placename": "PICCADILLY"},
	{"postcode": "5152", "placename": "CLELAND"},
	{"postcode": "5152", "placename": "CRAFERS"},
	{"postcode": "5152", "placename": "CRAFERS WEST"},
	{"postcode": "5152", "placename": "MOUNT LOFTY"},
	{"postcode": "5152", "placename": "STIRLING"},
	{"postcode": "5153", "placename": "BIGGS FLAT"},
	{"postcode": "5153", "placename": "BRADBURY"},
	{"postcode": "5153", "placename": "CHAPEL HILL"},
	{"postcode": "5153", "placename": "ECHUNGA"},
	{"postcode": "5153", "placename": "FLAXLEY"},
	{"postcode": "5153", "placename": "GREEN HILLS RANGE"},
	{"postcode": "5153", "placename": "HEATHFIELD"},
	{"postcode": "5153", "placename": "IRONBANK"},
	{"postcode": "5153", "placename": "JUPITER CREEK"},
	{"postcode": "5153", "placename": "LONGWOOD"},
	{"postcode": "5153", "placename": "MACCLESFIELD"},
	{"postcode": "5153", "placename": "MYLOR"},
	{"postcode": "5153", "placename": "SCOTT CREEK"},
	{"postcode": "5154", "placename": "ALDGATE"},
	{"postcode": "5155", "placename": "BRIDGEWATER"},
	{"postcode": "5155", "placename": "MOUNT GEORGE"},
	{"postcode": "5156", "placename": "UPPER STURT"},
	{"postcode": "5157", "placename": "ASHBOURNE"},
	{"postcode": "5157", "placename": "BULL CREEK"},
	{"postcode": "5157", "placename": "CHERRY GARDENS"},
	{"postcode": "5157", "placename": "CLARENDON"},
	{"postcode": "5157", "placename": "COROMANDEL EAST"},
	{"postcode": "5157", "placename": "DORSET VALE"},
	{"postcode": "5157", "placename": "KANGARILLA"},
	{"postcode": "5157", "placename": "MCHARG CREEK"},
	{"postcode": "5158", "placename": "HALLETT COVE"},
	{"postcode": "5158", "placename": "O'HALLORAN HILL"},
	{"postcode": "5158", "placename": "O'HALLORAN HILL DC"},
	{"postcode": "5158", "placename": "SHEIDOW PARK"},
	{"postcode": "5158", "placename": "TROTT PARK"},
	{"postcode": "5159", "placename": "ABERFOYLE PARK"},
	{"postcode": "5159", "placename": "CHANDLERS HILL"},
	{"postcode": "5159", "placename": "FLAGSTAFF HILL"},
	{"postcode": "5159", "placename": "HAPPY VALLEY"},
	{"postcode": "5160", "placename": "LONSDALE"},
	{"postcode": "5160", "placename": "LONSDALE DC"},
	{"postcode": "5160", "placename": "PORT STANVAC"},
	{"postcode": "5161", "placename": "OLD REYNELLA"},
	{"postcode": "5161", "placename": "REYNELLA"},
	{"postcode": "5161", "placename": "REYNELLA EAST"},
	{"postcode": "5162", "placename": "MORPHETT VALE"},
	{"postcode": "5162", "placename": "WOODCROFT"},
	{"postcode": "5163", "placename": "HACKHAM"},
	{"postcode": "5163", "placename": "HACKHAM WEST"},
	{"postcode": "5163", "placename": "HUNTFIELD HEIGHTS"},
	{"postcode": "5163", "placename": "ONKAPARINGA HILLS"},
	{"postcode": "5164", "placename": "CHRISTIE DOWNS"},
	{"postcode": "5165", "placename": "CHRISTIES BEACH"},
	{"postcode": "5165", "placename": "CHRISTIES BEACH NORTH"},
	{"postcode": "5166", "placename": "O'SULLIVAN BEACH"},
	{"postcode": "5167", "placename": "PORT NOARLUNGA"},
	{"postcode": "5167", "placename": "PORT NOARLUNGA SOUTH"},
	{"postcode": "5168", "placename": "NOARLUNGA CENTRE"},
	{"postcode": "5168", "placename": "NOARLUNGA DOWNS"},
	{"postcode": "5168", "placename": "OLD NOARLUNGA"},
	{"postcode": "5169", "placename": "MOANA"},
	{"postcode": "5169", "placename": "SEAFORD"},
	{"postcode": "5169", "placename": "SEAFORD HEIGHTS"},
	{"postcode": "5169", "placename": "SEAFORD MEADOWS"},
	{"postcode": "5169", "placename": "SEAFORD RISE"},
	{"postcode": "5170", "placename": "MASLIN BEACH"},
	{"postcode": "5171", "placename": "BLEWITT SPRINGS"},
	{"postcode": "5171", "placename": "MCLAREN FLAT"},
	{"postcode": "5171", "placename": "MCLAREN VALE"},
	{"postcode": "5171", "placename": "PEDLER CREEK"},
	{"postcode": "5171", "placename": "TATACHILLA"},
	{"postcode": "5172", "placename": "DINGABLEDINGA"},
	{"postcode": "5172", "placename": "HOPE FOREST"},
	{"postcode": "5172", "placename": "KUITPO"},
	{"postcode": "5172", "placename": "KUITPO COLONY"},
	{"postcode": "5172", "placename": "KYEEMA"},
	{"postcode": "5172", "placename": "MONTARRA"},
	{"postcode": "5172", "placename": "PAGES FLAT"},
	{"postcode": "5172", "placename": "THE RANGE"},
	{"postcode": "5172", "placename": "WHITES VALLEY"},
	{"postcode": "5172", "placename": "WILLUNGA"},
	{"postcode": "5172", "placename": "WILLUNGA HILL"},
	{"postcode": "5172", "placename": "WILLUNGA SOUTH"},
	{"postcode": "5172", "placename": "YUNDI"},
	{"postcode": "5173", "placename": "ALDINGA"},
	{"postcode": "5173", "placename": "ALDINGA BEACH"},
	{"postcode": "5173", "placename": "PORT WILLUNGA"},
	{"postcode": "5173", "placename": "SILVER SANDS"},
	{"postcode": "5174", "placename": "SELLICKS BEACH"},
	{"postcode": "5174", "placename": "SELLICKS HILL"},
	{"postcode": "5201", "placename": "BLACKFELLOWS CREEK"},
	{"postcode": "5201", "placename": "KUITPO"},
	{"postcode": "5201", "placename": "MEADOWS"},
	{"postcode": "5201", "placename": "PARIS CREEK"},
	{"postcode": "5201", "placename": "PROSPECT HILL"},
	{"postcode": "5202", "placename": "HINDMARSH TIERS"},
	{"postcode": "5202", "placename": "MYPONGA"},
	{"postcode": "5202", "placename": "MYPONGA BEACH"},
	{"postcode": "5203", "placename": "BALD HILLS"},
	{"postcode": "5203", "placename": "PARAWA"},
	{"postcode": "5203", "placename": "TORRENS VALE"},
	{"postcode": "5203", "placename": "TUNKALILLA"},
	{"postcode": "5203", "placename": "WATTLE FLAT"},
	{"postcode": "5203", "placename": "YANKALILLA"},
	{"postcode": "5204", "placename": "CAPE JERVIS"},
	{"postcode": "5204", "placename": "CARRICKALINGA"},
	{"postcode": "5204", "placename": "DEEP CREEK"},
	{"postcode": "5204", "placename": "DELAMERE"},
	{"postcode": "5204", "placename": "HAY FLAT"},
	{"postcode": "5204", "placename": "NORMANVILLE"},
	{"postcode": "5204", "placename": "RAPID BAY"},
	{"postcode": "5204", "placename": "SECOND VALLEY"},
	{"postcode": "5204", "placename": "SILVERTON"},
	{"postcode": "5204", "placename": "WIRRINA COVE"},
	{"postcode": "5210", "placename": "MOUNT COMPASS"},
	{"postcode": "5210", "placename": "MOUNT MAGNIFICENT"},
	{"postcode": "5210", "placename": "NANGKITA"},
	{"postcode": "5211", "placename": "BACK VALLEY"},
	{"postcode": "5211", "placename": "ENCOUNTER BAY"},
	{"postcode": "5211", "placename": "HAYBOROUGH"},
	{"postcode": "5211", "placename": "HINDMARSH VALLEY"},
	{"postcode": "5211", "placename": "INMAN VALLEY"},
	{"postcode": "5211", "placename": "LOWER INMAN VALLEY"},
	{"postcode": "5211", "placename": "MCCRACKEN"},
	{"postcode": "5211", "placename": "MOUNT JAGGED"},
	{"postcode": "5211", "placename": "VICTOR HARBOR"},
	{"postcode": "5211", "placename": "VICTOR HARBOR CENTRAL"},
	{"postcode": "5211", "placename": "WAITPINGA"},
	{"postcode": "5211", "placename": "WILLOW CREEK"},
	{"postcode": "5211", "placename": "YILKI"},
	{"postcode": "5212", "placename": "PORT ELLIOT"},
	{"postcode": "5213", "placename": "MIDDLETON"},
	{"postcode": "5214", "placename": "CURRENCY CREEK"},
	{"postcode": "5214", "placename": "GOOLWA"},
	{"postcode": "5214", "placename": "GOOLWA BEACH"},
	{"postcode": "5214", "placename": "GOOLWA NORTH"},
	{"postcode": "5214", "placename": "GOOLWA SOUTH"},
	{"postcode": "5214", "placename": "HINDMARSH ISLAND"},
	{"postcode": "5214", "placename": "MOSQUITO HILL"},
	{"postcode": "5214", "placename": "MUNDOO ISLAND"},
	{"postcode": "5220", "placename": "PARNDANA"},
	{"postcode": "5221", "placename": "AMERICAN RIVER"},
	{"postcode": "5221", "placename": "BALLAST HEAD"},
	{"postcode": "5221", "placename": "MUSTON"},
	{"postcode": "5222", "placename": "AMERICAN BEACH"},
	{"postcode": "5222", "placename": "ANTECHAMBER BAY"},
	{"postcode": "5222", "placename": "BAUDIN BEACH"},
	{"postcode": "5222", "placename": "BROWN BEACH"},
	{"postcode": "5222", "placename": "BROWNS BEACH"},
	{"postcode": "5222", "placename": "CUTTLEFISH BAY"},
	{"postcode": "5222", "placename": "DUDLEY EAST"},
	{"postcode": "5222", "placename": "DUDLEY WEST"},
	{"postcode": "5222", "placename": "HUNGERFORD"},
	{"postcode": "5222", "placename": "IRONSTONE"},
	{"postcode": "5222", "placename": "ISLAND BEACH"},
	{"postcode": "5222", "placename": "KANGAROO HEAD"},
	{"postcode": "5222", "placename": "PELICAN LAGOON"},
	{"postcode": "5222", "placename": "PENNESHAW"},
	{"postcode": "5222", "placename": "PORKY FLAT"},
	{"postcode": "5222", "placename": "SAPPHIRETOWN"},
	{"postcode": "5222", "placename": "WILLOUGHBY"},
	{"postcode": "5222", "placename": "WILLSON RIVER"},
	{"postcode": "5223", "placename": "BAY OF SHOALS"},
	{"postcode": "5223", "placename": "BIRCHMORE"},
	{"postcode": "5223", "placename": "BROWNLOW"},
	{"postcode": "5223", "placename": "BROWNLOW KI"},
	{"postcode": "5223", "placename": "CAPE BORDA"},
	{"postcode": "5223", "placename": "CASSINI"},
	{"postcode": "5223", "placename": "CYGNET RIVER"},
	{"postcode": "5223", "placename": "DE MOLE RIVER"},
	{"postcode": "5223", "placename": "D'ESTREES BAY"},
	{"postcode": "5223", "placename": "DUNCAN"},
	{"postcode": "5223", "placename": "EMU BAY"},
	{"postcode": "5223", "placename": "FLINDERS CHASE"},
	{"postcode": "5223", "placename": "GOSSE"},
	{"postcode": "5223", "placename": "HAINES"},
	{"postcode": "5223", "placename": "HARRIET RIVER"},
	{"postcode": "5223", "placename": "KARATTA"},
	{"postcode": "5223", "placename": "KINGSCOTE"},
	{"postcode": "5223", "placename": "KOHINOOR"},
	{"postcode": "5223", "placename": "MACGILLIVRAY"},
	{"postcode": "5223", "placename": "MENZIES"},
	{"postcode": "5223", "placename": "MIDDLE RIVER"},
	{"postcode": "5223", "placename": "NEPEAN BAY"},
	{"postcode": "5223", "placename": "NEWLAND"},
	{"postcode": "5223", "placename": "NORTH CAPE"},
	{"postcode": "5223", "placename": "SEAL BAY"},
	{"postcode": "5223", "placename": "SEDDON"},
	{"postcode": "5223", "placename": "STOKES BAY"},
	{"postcode": "5223", "placename": "STUN'SAIL BOOM"},
	{"postcode": "5223", "placename": "VIVONNE BAY"},
	{"postcode": "5223", "placename": "WESTERN RIVER"},
	{"postcode": "5223", "placename": "WISANGER"},
	{"postcode": "5231", "placename": "CHAIN OF PONDS"},
	{"postcode": "5231", "placename": "KERSBROOK"},
	{"postcode": "5231", "placename": "MILLBROOK"},
	{"postcode": "5232", "placename": "CUDLEE CREEK"},
	{"postcode": "5233", "placename": "FORRESTON"},
	{"postcode": "5233", "placename": "GUMERACHA"},
	{"postcode": "5233", "placename": "KENTON VALLEY"},
	{"postcode": "5233", "placename": "WARREN"},
	{"postcode": "5234", "placename": "BIRDWOOD"},
	{"postcode": "5235", "placename": "CROMER"},
	{"postcode": "5235", "placename": "EDEN VALLEY"},
	{"postcode": "5235", "placename": "FLAXMAN VALLEY"},
	{"postcode": "5235", "placename": "MOUNT PLEASANT"},
	{"postcode": "5235", "placename": "SPRINGTON"},
	{"postcode": "5235", "placename": "TAUNTON"},
	{"postcode": "5236", "placename": "TUNGKILLO"},
	{"postcode": "5237", "placename": "APAMURRA"},
	{"postcode": "5237", "placename": "MILENDELLA"},
	{"postcode": "5237", "placename": "PALMER"},
	{"postcode": "5237", "placename": "SANDERSTON"},
	{"postcode": "5238", "placename": "ANGAS VALLEY"},
	{"postcode": "5238", "placename": "BIG BEND"},
	{"postcode": "5238", "placename": "BOLTO"},
	{"postcode": "5238", "placename": "BONYTHON"},
	{"postcode": "5238", "placename": "BOWHILL"},
	{"postcode": "5238", "placename": "CAURNAMONT"},
	{"postcode": "5238", "placename": "CLAYPANS"},
	{"postcode": "5238", "placename": "COOLCHA"},
	{"postcode": "5238", "placename": "COWIRRA"},
	{"postcode": "5238", "placename": "FIVE MILES"},
	{"postcode": "5238", "placename": "FORSTER"},
	{"postcode": "5238", "placename": "FRAHNS"},
	{"postcode": "5238", "placename": "FRAYVILLE"},
	{"postcode": "5238", "placename": "JULANKA HOLDINGS"},
	{"postcode": "5238", "placename": "LAKE CARLET"},
	{"postcode": "5238", "placename": "MANNUM"},
	{"postcode": "5238", "placename": "NILDOTTIE"},
	{"postcode": "5238", "placename": "OLD TEAL FLAT"},
	{"postcode": "5238", "placename": "PELLARING FLAT"},
	{"postcode": "5238", "placename": "POMPOOTA"},
	{"postcode": "5238", "placename": "PONDE"},
	{"postcode": "5238", "placename": "PORT MANNUM"},
	{"postcode": "5238", "placename": "PUNTHARI"},
	{"postcode": "5238", "placename": "PURNONG"},
	{"postcode": "5238", "placename": "PURNONG LANDING"},
	{"postcode": "5238", "placename": "ROCKY POINT"},
	{"postcode": "5238", "placename": "TEAL FLAT"},
	{"postcode": "5238", "placename": "WALKER FLAT"},
	{"postcode": "5238", "placename": "WALL"},
	{"postcode": "5238", "placename": "WONGULLA"},
	{"postcode": "5238", "placename": "WOODLANE"},
	{"postcode": "5238", "placename": "YOUNGHUSBAND"},
	{"postcode": "5238", "placename": "YOUNGHUSBAND HOLDINGS"},
	{"postcode": "5240", "placename": "LENSWOOD"},
	{"postcode": "5241", "placename": "LOBETHAL"},
	{"postcode": "5242", "placename": "BALHANNAH"},
	{"postcode": "5243", "placename": "OAKBANK"},
	{"postcode": "5244", "placename": "CHARLESTON"},
	{"postcode": "5244", "placename": "HARROGATE"},
	{"postcode": "5244", "placename": "INVERBRACKIE"},
	{"postcode": "5244", "placename": "MOUNT TORRENS"},
	{"postcode": "5244", "placename": "WOODSIDE"},
	{"postcode": "5245", "placename": "HAHNDORF"},
	{"postcode": "5245", "placename": "PAECHTOWN"},
	{"postcode": "5245", "placename": "VERDUN"},
	{"postcode": "5250", "placename": "BLAKISTON"},
	{"postcode": "5250", "placename": "LITTLEHAMPTON"},
	{"postcode": "5250", "placename": "TOTNESS"},
	{"postcode": "5251", "placename": "BUGLE RANGES"},
	{"postcode": "5251", "placename": "MOUNT BARKER"},
	{"postcode": "5251", "placename": "MOUNT BARKER JUNCTION"},
	{"postcode": "5251", "placename": "MOUNT BARKER SPRINGS"},
	{"postcode": "5251", "placename": "MOUNT BARKER SUMMIT"},
	{"postcode": "5251", "placename": "WISTOW"},
	{"postcode": "5252", "placename": "BRUKUNGA"},
	{"postcode": "5252", "placename": "DAWESLEY"},
	{"postcode": "5252", "placename": "HAY VALLEY"},
	{"postcode": "5252", "placename": "KANMANTOO"},
	{"postcode": "5252", "placename": "NAIRNE"},
	{"postcode": "5252", "placename": "ST IVES"},
	{"postcode": "5253", "placename": "AVOCA DELL"},
	{"postcode": "5253", "placename": "BRINKLEY"},
	{"postcode": "5253", "placename": "BURDETT"},
	{"postcode": "5253", "placename": "CHAPMAN BORE"},
	{"postcode": "5253", "placename": "ETTRICK"},
	{"postcode": "5253", "placename": "GIFFORD HILL"},
	{"postcode": "5253", "placename": "GREENBANKS"},
	{"postcode": "5253", "placename": "LONG FLAT"},
	{"postcode": "5253", "placename": "MOBILONG"},
	{"postcode": "5253", "placename": "MONTEITH"},
	{"postcode": "5253", "placename": "MURRAWONG"},
	{"postcode": "5253", "placename": "MURRAY BRIDGE"},
	{"postcode": "5253", "placename": "MURRAY BRIDGE EAST"},
	{"postcode": "5253", "placename": "MURRAY BRIDGE NORTH"},
	{"postcode": "5253", "placename": "MURRAY BRIDGE SOUTH"},
	{"postcode": "5253", "placename": "NORTHERN HEIGHTS"},
	{"postcode": "5253", "placename": "RIVERGLADES"},
	{"postcode": "5253", "placename": "RIVERGLEN"},
	{"postcode": "5253", "placename": "ROCKY GULLY"},
	{"postcode": "5253", "placename": "SUNNYSIDE"},
	{"postcode": "5253", "placename": "SWANPORT"},
	{"postcode": "5253", "placename": "TOORA"},
	{"postcode": "5253", "placename": "WHITE HILL"},
	{"postcode": "5253", "placename": "WHITE SANDS"},
	{"postcode": "5253", "placename": "WILLOW BANKS"},
	{"postcode": "5253", "placename": "WOODS POINT"},
	{"postcode": "5254", "placename": "BUCCLEUCH"},
	{"postcode": "5254", "placename": "CALLINGTON"},
	{"postcode": "5254", "placename": "CALOOTE"},
	{"postcode": "5254", "placename": "MONARTO"},
	{"postcode": "5254", "placename": "MONARTO SOUTH"},
	{"postcode": "5254", "placename": "MONTEITH"},
	{"postcode": "5254", "placename": "MURRAY BRIDGE"},
	{"postcode": "5254", "placename": "MYPOLONGA"},
	{"postcode": "5254", "placename": "PALLAMANA"},
	{"postcode": "5254", "placename": "PETWOOD"},
	{"postcode": "5254", "placename": "ROCKLEIGH"},
	{"postcode": "5254", "placename": "ROCKY GULLY"},
	{"postcode": "5254", "placename": "TEPKO"},
	{"postcode": "5254", "placename": "THE POINT"},
	{"postcode": "5254", "placename": "WALL FLAT"},
	{"postcode": "5254", "placename": "WHITE HILL"},
	{"postcode": "5254", "placename": "WOODLANE"},
	{"postcode": "5254", "placename": "ZADOWS LANDING"},
	{"postcode": "5255", "placename": "ANGAS PLAINS"},
	{"postcode": "5255", "placename": "BELVIDERE"},
	{"postcode": "5255", "placename": "BLETCHLEY"},
	{"postcode": "5255", "placename": "FINNISS"},
	{"postcode": "5255", "placename": "GEMMELLS"},
	{"postcode": "5255", "placename": "HARTLEY"},
	{"postcode": "5255", "placename": "HIGHLAND VALLEY"},
	{"postcode": "5255", "placename": "LAKE PLAINS"},
	{"postcode": "5255", "placename": "LANGHORNE CREEK"},
	{"postcode": "5255", "placename": "MOUNT OBSERVATION"},
	{"postcode": "5255", "placename": "MULGUNDAWA"},
	{"postcode": "5255", "placename": "NALPA"},
	{"postcode": "5255", "placename": "RED CREEK"},
	{"postcode": "5255", "placename": "SALEM"},
	{"postcode": "5255", "placename": "SANDERGROVE"},
	{"postcode": "5255", "placename": "STRATHALBYN"},
	{"postcode": "5255", "placename": "TOOPERANG"},
	{"postcode": "5255", "placename": "WILLYAROO"},
	{"postcode": "5255", "placename": "WOODCHESTER"},
	{"postcode": "5256", "placename": "CLAYTON"},
	{"postcode": "5256", "placename": "CLAYTON BAY"},
	{"postcode": "5256", "placename": "MILANG"},
	{"postcode": "5256", "placename": "NURRAGI"},
	{"postcode": "5256", "placename": "POINT STURT"},
	{"postcode": "5256", "placename": "TOLDEROL"},
	{"postcode": "5259", "placename": "ASHVILLE"},
	{"postcode": "5259", "placename": "EAST WELLINGTON"},
	{"postcode": "5259", "placename": "JERVOIS"},
	{"postcode": "5259", "placename": "KEPA"},
	{"postcode": "5259", "placename": "LAKE ALBERT"},
	{"postcode": "5259", "placename": "LAKE ALEXANDRINA"},
	{"postcode": "5259", "placename": "MALINONG"},
	{"postcode": "5259", "placename": "NARRUNG"},
	{"postcode": "5259", "placename": "NATURI"},
	{"postcode": "5259", "placename": "POINT MCLEAY"},
	{"postcode": "5259", "placename": "POLTALLOCH"},
	{"postcode": "5259", "placename": "RAUKKAN"},
	{"postcode": "5259", "placename": "TAILEM BEND"},
	{"postcode": "5259", "placename": "WELLINGTON"},
	{"postcode": "5259", "placename": "WELLINGTON EAST"},
	{"postcode": "5260", "placename": "BAYAH"},
	{"postcode": "5260", "placename": "ELWOMPLE"},
	{"postcode": "5260", "placename": "TAILEM BEND"},
	{"postcode": "5261", "placename": "COOKE PLAINS"},
	{"postcode": "5261", "placename": "COOMANDOOK"},
	{"postcode": "5261", "placename": "CULBURRA"},
	{"postcode": "5261", "placename": "KI KI"},
	{"postcode": "5261", "placename": "YUMALI"},
	{"postcode": "5262", "placename": "BINNUM"},
	{"postcode": "5262", "placename": "FRANCES"},
	{"postcode": "5262", "placename": "HYNAM"},
	{"postcode": "5262", "placename": "KYBYBOLITE"},
	{"postcode": "5263", "placename": "COONAWARRA"},
	{"postcode": "5264", "placename": "COORONG"},
	{"postcode": "5264", "placename": "MENINGIE"},
	{"postcode": "5264", "placename": "MENINGIE EAST"},
	{"postcode": "5264", "placename": "MENINGIE WEST"},
	{"postcode": "5264", "placename": "POLICEMAN POINT"},
	{"postcode": "5264", "placename": "SALT CREEK"},
	{"postcode": "5264", "placename": "WALTOWA"},
	{"postcode": "5265", "placename": "COONALPYN"},
	{"postcode": "5265", "placename": "FIELD"},
	{"postcode": "5266", "placename": "BUNBURY"},
	{"postcode": "5266", "placename": "COLEBATCH"},
	{"postcode": "5266", "placename": "DEEPWATER"},
	{"postcode": "5266", "placename": "TINTINARA"},
	{"postcode": "5267", "placename": "BRIMBAGO"},
	{"postcode": "5267", "placename": "COOMBE"},
	{"postcode": "5267", "placename": "KEITH"},
	{"postcode": "5267", "placename": "LAFFER"},
	{"postcode": "5267", "placename": "MAKIN"},
	{"postcode": "5267", "placename": "MCCALLUM"},
	{"postcode": "5267", "placename": "MOUNT CHARLES"},
	{"postcode": "5267", "placename": "PETHERICK"},
	{"postcode": "5267", "placename": "SHAUGH"},
	{"postcode": "5267", "placename": "SHERWOOD"},
	{"postcode": "5267", "placename": "WILLALOOKA"},
	{"postcode": "5267", "placename": "WIRREGA"},
	{"postcode": "5268", "placename": "BANGHAM"},
	{"postcode": "5268", "placename": "BORDERTOWN"},
	{"postcode": "5268", "placename": "BORDERTOWN SOUTH"},
	{"postcode": "5268", "placename": "CANGARA"},
	{"postcode": "5268", "placename": "CANNAWIGARA"},
	{"postcode": "5268", "placename": "LOWAN VALE"},
	{"postcode": "5268", "placename": "POOGINAGORIC"},
	{"postcode": "5268", "placename": "SENIOR"},
	{"postcode": "5268", "placename": "WESTERN FLAT"},
	{"postcode": "5269", "placename": "CUSTON"},
	{"postcode": "5269", "placename": "PINE HILL"},
	{"postcode": "5269", "placename": "WOLSELEY"},
	{"postcode": "5270", "placename": "BUCKINGHAM"},
	{"postcode": "5270", "placename": "CAREW"},
	{"postcode": "5270", "placename": "CUSTON"},
	{"postcode": "5270", "placename": "KONGAL"},
	{"postcode": "5270", "placename": "MUNDULLA"},
	{"postcode": "5270", "placename": "MUNDULLA WEST"},
	{"postcode": "5270", "placename": "SWEDE FLAT"},
	{"postcode": "5271", "placename": "BOOL LAGOON"},
	{"postcode": "5271", "placename": "CADGEE"},
	{"postcode": "5271", "placename": "JOANNA"},
	{"postcode": "5271", "placename": "KEPPOCH"},
	{"postcode": "5271", "placename": "KOPPAMURRA"},
	{"postcode": "5271", "placename": "LAURIE PARK"},
	{"postcode": "5271", "placename": "LOCHABER"},
	{"postcode": "5271", "placename": "MARCOLLAT"},
	{"postcode": "5271", "placename": "MOUNT LIGHT"},
	{"postcode": "5271", "placename": "MOYHALL"},
	{"postcode": "5271", "placename": "NARACOORTE"},
	{"postcode": "5271", "placename": "PADTHAWAY"},
	{"postcode": "5271", "placename": "SPENCE"},
	{"postcode": "5271", "placename": "STEWART RANGE"},
	{"postcode": "5271", "placename": "STRUAN"},
	{"postcode": "5271", "placename": "THE GAP"},
	{"postcode": "5271", "placename": "WILD DOG VALLEY"},
	{"postcode": "5271", "placename": "WRATTONBULLY"},
	{"postcode": "5272", "placename": "COLES"},
	{"postcode": "5272", "placename": "CONMURRA"},
	{"postcode": "5272", "placename": "FOX"},
	{"postcode": "5272", "placename": "GREENWAYS"},
	{"postcode": "5272", "placename": "LUCINDALE"},
	{"postcode": "5272", "placename": "WOOLUMBOOL"},
	{"postcode": "5273", "placename": "AVENUE RANGE"},
	{"postcode": "5275", "placename": "BLACKFORD"},
	{"postcode": "5275", "placename": "BOATSWAIN POINT"},
	{"postcode": "5275", "placename": "CAPE JAFFA"},
	{"postcode": "5275", "placename": "KEILIRA"},
	{"postcode": "5275", "placename": "KINGSTON SE"},
	{"postcode": "5275", "placename": "MOUNT BENSON"},
	{"postcode": "5275", "placename": "PINKS BEACH"},
	{"postcode": "5275", "placename": "REEDY CREEK"},
	{"postcode": "5275", "placename": "ROSETOWN"},
	{"postcode": "5275", "placename": "SANDY GROVE"},
	{"postcode": "5275", "placename": "TARATAP"},
	{"postcode": "5275", "placename": "TILLEY SWAMP"},
	{"postcode": "5275", "placename": "WANGOLINA"},
	{"postcode": "5275", "placename": "WEST RANGE"},
	{"postcode": "5275", "placename": "WYOMI"},
	{"postcode": "5276", "placename": "BRAY"},
	{"postcode": "5276", "placename": "NORA CREINA"},
	{"postcode": "5276", "placename": "ROBE"},
	{"postcode": "5277", "placename": "COMAUM"},
	{"postcode": "5277", "placename": "GLENROY"},
	{"postcode": "5277", "placename": "MAAOUPE"},
	{"postcode": "5277", "placename": "MONBULLA"},
	{"postcode": "5277", "placename": "NANGWARRY"},
	{"postcode": "5277", "placename": "PENOLA"},
	{"postcode": "5277", "placename": "PLEASANT PARK"},
	{"postcode": "5277", "placename": "TARPEENA"},
	{"postcode": "5278", "placename": "KALANGADOO"},
	{"postcode": "5278", "placename": "KRONGART"},
	{"postcode": "5278", "placename": "MOERLONG"},
	{"postcode": "5278", "placename": "WEPAR"},
	{"postcode": "5279", "placename": "KOORINE"},
	{"postcode": "5279", "placename": "MOUNT BURR"},
	{"postcode": "5279", "placename": "MOUNT MCINTYRE"},
	{"postcode": "5279", "placename": "SHORT"},
	{"postcode": "5279", "placename": "TRIHI"},
	{"postcode": "5279", "placename": "WATTLE RANGE EAST"},
	{"postcode": "5280", "placename": "BEACHPORT"},
	{"postcode": "5280", "placename": "CANUNDA"},
	{"postcode": "5280", "placename": "CLAY WELLS"},
	{"postcode": "5280", "placename": "FURNER"},
	{"postcode": "5280", "placename": "GERMAN CREEK"},
	{"postcode": "5280", "placename": "GERMAN FLAT"},
	{"postcode": "5280", "placename": "HATHERLEIGH"},
	{"postcode": "5280", "placename": "KANGAROO INN"},
	{"postcode": "5280", "placename": "MAGAREY"},
	{"postcode": "5280", "placename": "MILLICENT"},
	{"postcode": "5280", "placename": "RENDELSHAM"},
	{"postcode": "5280", "placename": "ROCKY CAMP"},
	{"postcode": "5280", "placename": "SEBASTOPOL"},
	{"postcode": "5280", "placename": "SOUTHEND"},
	{"postcode": "5280", "placename": "TANTANOOLA"},
	{"postcode": "5280", "placename": "THORNLEA"},
	{"postcode": "5280", "placename": "WATTLE RANGE"},
	{"postcode": "5290", "placename": "MOUNT GAMBIER"},
	{"postcode": "5290", "placename": "MOUNT GAMBIER DC"},
	{"postcode": "5291", "placename": "ALLENDALE EAST"},
	{"postcode": "5291", "placename": "BLACKFELLOWS CAVES"},
	{"postcode": "5291", "placename": "BURRUNGULE"},
	{"postcode": "5291", "placename": "CANUNDA"},
	{"postcode": "5291", "placename": "CAPE DOUGLAS"},
	{"postcode": "5291", "placename": "CAROLINE"},
	{"postcode": "5291", "placename": "CARPENTER ROCKS"},
	{"postcode": "5291", "placename": "CAVETON"},
	{"postcode": "5291", "placename": "COMPTON"},
	{"postcode": "5291", "placename": "DISMAL SWAMP"},
	{"postcode": "5291", "placename": "DONOVANS"},
	{"postcode": "5291", "placename": "EIGHT MILE CREEK"},
	{"postcode": "5291", "placename": "GERMAN CREEK"},
	{"postcode": "5291", "placename": "GLENBURNIE"},
	{"postcode": "5291", "placename": "GLENCOE"},
	{"postcode": "5291", "placename": "GLENCOE WEST"},
	{"postcode": "5291", "placename": "KONGORONG"},
	{"postcode": "5291", "placename": "MIL LEL"},
	{"postcode": "5291", "placename": "MIL-LEL"},
	{"postcode": "5291", "placename": "MINGBOOL"},
	{"postcode": "5291", "placename": "MOORAK"},
	{"postcode": "5291", "placename": "MOUNT GAMBIER"},
	{"postcode": "5291", "placename": "MOUNT GAMBIER EAST"},
	{"postcode": "5291", "placename": "MOUNT GAMBIER WEST"},
	{"postcode": "5291", "placename": "MOUNT SCHANK"},
	{"postcode": "5291", "placename": "NENE VALLEY"},
	{"postcode": "5291", "placename": "O B FLAT"},
	{"postcode": "5291", "placename": "OB FLAT"},
	{"postcode": "5291", "placename": "PELICAN POINT"},
	{"postcode": "5291", "placename": "PORT MACDONNELL"},
	{"postcode": "5291", "placename": "RACECOURSE BAY"},
	{"postcode": "5291", "placename": "SQUARE MILE"},
	{"postcode": "5291", "placename": "SUTTONTOWN"},
	{"postcode": "5291", "placename": "WANDILO"},
	{"postcode": "5291", "placename": "WORROLONG"},
	{"postcode": "5291", "placename": "WYE"},
	{"postcode": "5291", "placename": "YAHL"},
	{"postcode": "5301", "placename": "CARCUMA"},
	{"postcode": "5301", "placename": "GERANIUM"},
	{"postcode": "5301", "placename": "JABUK"},
	{"postcode": "5301", "placename": "MOORLANDS"},
	{"postcode": "5301", "placename": "NETHERTON"},
	{"postcode": "5301", "placename": "PARRAKIE"},
	{"postcode": "5301", "placename": "PEAKE"},
	{"postcode": "5301", "placename": "SHERLOCK"},
	{"postcode": "5301", "placename": "WILKAWATT"},
	{"postcode": "5302", "placename": "LAMEROO"},
	{"postcode": "5302", "placename": "NGARKAT"},
	{"postcode": "5302", "placename": "SMITHVILLE"},
	{"postcode": "5303", "placename": "PARILLA"},
	{"postcode": "5304", "placename": "KARTE"},
	{"postcode": "5304", "placename": "KRINGIN"},
	{"postcode": "5304", "placename": "PEEBINGA"},
	{"postcode": "5304", "placename": "PINNAROO"},
	{"postcode": "5306", "placename": "WYNARKA"},
	{"postcode": "5307", "placename": "KAROONDA"},
	{"postcode": "5307", "placename": "KARTE"},
	{"postcode": "5307", "placename": "KULKAMI"},
	{"postcode": "5307", "placename": "LOWALDIE"},
	{"postcode": "5307", "placename": "MARAMA"},
	{"postcode": "5307", "placename": "MOOTATUNGA"},
	{"postcode": "5308", "placename": "COPEVILLE"},
	{"postcode": "5308", "placename": "GALGA"},
	{"postcode": "5308", "placename": "KALYAN"},
	{"postcode": "5308", "placename": "MAGGEA"},
	{"postcode": "5308", "placename": "MANTUNG"},
	{"postcode": "5308", "placename": "MERCUNDA"},
	{"postcode": "5308", "placename": "PERPONDA"},
	{"postcode": "5309", "placename": "BORRIKA"},
	{"postcode": "5309", "placename": "HALIDON"},
	{"postcode": "5309", "placename": "MINDARIE"},
	{"postcode": "5309", "placename": "SANDALWOOD"},
	{"postcode": "5310", "placename": "CALIPH"},
	{"postcode": "5310", "placename": "WANBI"},
	{"postcode": "5311", "placename": "ALAWOONA"},
	{"postcode": "5311", "placename": "BILLIATT"},
	{"postcode": "5311", "placename": "BUGLE HUT"},
	{"postcode": "5311", "placename": "MAGGEA"},
	{"postcode": "5311", "placename": "MALPAS"},
	{"postcode": "5311", "placename": "MERIBAH"},
	{"postcode": "5311", "placename": "PARUNA"},
	{"postcode": "5311", "placename": "SCHELL WELL"},
	{"postcode": "5311", "placename": "TALDRA"},
	{"postcode": "5311", "placename": "TAPLAN"},
	{"postcode": "5311", "placename": "VEITCH"},
	{"postcode": "5311", "placename": "WOODLEIGH"},
	{"postcode": "5311", "placename": "WUNKAR"},
	{"postcode": "5320", "placename": "BEATTY"},
	{"postcode": "5320", "placename": "BEAUMONTS"},
	{"postcode": "5320", "placename": "BRENDA PARK"},
	{"postcode": "5320", "placename": "BUNDEY"},
	{"postcode": "5320", "placename": "EBA"},
	{"postcode": "5320", "placename": "LINDLEY"},
	{"postcode": "5320", "placename": "MAUDE"},
	{"postcode": "5320", "placename": "MORGAN"},
	{"postcode": "5320", "placename": "MORPHETTS FLAT"},
	{"postcode": "5320", "placename": "MURBKO"},
	{"postcode": "5320", "placename": "NORTH WEST BEND"},
	{"postcode": "5320", "placename": "STUART"},
	{"postcode": "5320", "placename": "WESTONS FLAT"},
	{"postcode": "5320", "placename": "WOMBATS REST"},
	{"postcode": "5321", "placename": "CADELL"},
	{"postcode": "5321", "placename": "CADELL LAGOON"},
	{"postcode": "5322", "placename": "GOLDEN HEIGHTS"},
	{"postcode": "5322", "placename": "QUALCO"},
	{"postcode": "5322", "placename": "RAMCO"},
	{"postcode": "5322", "placename": "RAMCO HEIGHTS"},
	{"postcode": "5322", "placename": "SUNLANDS"},
	{"postcode": "5330", "placename": "BOOLGUN"},
	{"postcode": "5330", "placename": "DEVLINS POUND"},
	{"postcode": "5330", "placename": "GOOD HOPE LANDING"},
	{"postcode": "5330", "placename": "HAWKS NEST STATION"},
	{"postcode": "5330", "placename": "HOLDER"},
	{"postcode": "5330", "placename": "HOLDER SIDING"},
	{"postcode": "5330", "placename": "KANNI"},
	{"postcode": "5330", "placename": "LOWBANK"},
	{"postcode": "5330", "placename": "MARKARANKA"},
	{"postcode": "5330", "placename": "OVERLAND CORNER"},
	{"postcode": "5330", "placename": "POOGINOOK"},
	{"postcode": "5330", "placename": "STOCKYARD PLAIN"},
	{"postcode": "5330", "placename": "TAYLORVILLE"},
	{"postcode": "5330", "placename": "TAYLORVILLE STATION"},
	{"postcode": "5330", "placename": "WAIKERIE"},
	{"postcode": "5330", "placename": "WIGLEY FLAT"},
	{"postcode": "5330", "placename": "WOOLPUNDA"},
	{"postcode": "5331", "placename": "KINGSTON ON MURRAY"},
	{"postcode": "5331", "placename": "KINGSTON-ON-MURRAY"},
	{"postcode": "5332", "placename": "MOOROOK"},
	{"postcode": "5332", "placename": "MOOROOK SOUTH"},
	{"postcode": "5332", "placename": "WAPPILKA"},
	{"postcode": "5332", "placename": "YINKANIE"},
	{"postcode": "5333", "placename": "BOOKPURNONG"},
	{"postcode": "5333", "placename": "LOXTON"},
	{"postcode": "5333", "placename": "LOXTON NORTH"},
	{"postcode": "5333", "placename": "NANGARI"},
	{"postcode": "5333", "placename": "NEW RESIDENCE"},
	{"postcode": "5333", "placename": "NOORA"},
	{"postcode": "5333", "placename": "PATA"},
	{"postcode": "5333", "placename": "PYAP"},
	{"postcode": "5333", "placename": "PYAP WEST"},
	{"postcode": "5333", "placename": "TAPLAN"},
	{"postcode": "5340", "placename": "MUNDIC CREEK"},
	{"postcode": "5340", "placename": "MURTHO"},
	{"postcode": "5340", "placename": "PARINGA"},
	{"postcode": "5340", "placename": "PIKE RIVER"},
	{"postcode": "5340", "placename": "WONUARRA"},
	{"postcode": "5340", "placename": "YAMBA"},
	{"postcode": "5341", "placename": "CALPERUM"},
	{"postcode": "5341", "placename": "CALPERUM STATION"},
	{"postcode": "5341", "placename": "CHAFFEY"},
	{"postcode": "5341", "placename": "CHOWILLA"},
	{"postcode": "5341", "placename": "COOLTONG"},
	{"postcode": "5341", "placename": "CRESCENT"},
	{"postcode": "5341", "placename": "OLD CALPERUM"},
	{"postcode": "5341", "placename": "RENMARK"},
	{"postcode": "5341", "placename": "RENMARK NORTH"},
	{"postcode": "5341", "placename": "RENMARK SOUTH"},
	{"postcode": "5341", "placename": "RENMARK WEST"},
	{"postcode": "5341", "placename": "YAMBA"},
	{"postcode": "5342", "placename": "MONASH"},
	{"postcode": "5343", "placename": "BERRI"},
	{"postcode": "5343", "placename": "GERARD"},
	{"postcode": "5343", "placename": "GURRA GURRA"},
	{"postcode": "5343", "placename": "KATARAPKO"},
	{"postcode": "5343", "placename": "LYRUP"},
	{"postcode": "5343", "placename": "WINKIE"},
	{"postcode": "5344", "placename": "GLOSSOP"},
	{"postcode": "5345", "placename": "BARMERA"},
	{"postcode": "5345", "placename": "LOVEDAY"},
	{"postcode": "5345", "placename": "SPECTACLE LAKE"},
	{"postcode": "5346", "placename": "COBDOGLA"},
	{"postcode": "5350", "placename": "ROSEDALE"},
	{"postcode": "5350", "placename": "SANDY CREEK"},
	{"postcode": "5351", "placename": "ALTONA"},
	{"postcode": "5351", "placename": "BAROSSA GOLDFIELDS"},
	{"postcode": "5351", "placename": "COCKATOO VALLEY"},
	{"postcode": "5351", "placename": "LYNDOCH"},
	{"postcode": "5351", "placename": "MOUNT CRAWFORD"},
	{"postcode": "5351", "placename": "PEWSEY VALE"},
	{"postcode": "5351", "placename": "WILLIAMSTOWN"},
	{"postcode": "5352", "placename": "BETHANY"},
	{"postcode": "5352", "placename": "GOMERSAL"},
	{"postcode": "5352", "placename": "KRONDORF"},
	{"postcode": "5352", "placename": "ROWLAND FLAT"},
	{"postcode": "5352", "placename": "STONE WELL"},
	{"postcode": "5352", "placename": "TANUNDA"},
	{"postcode": "5352", "placename": "VINE VALE"},
	{"postcode": "5353", "placename": "ANGASTON"},
	{"postcode": "5353", "placename": "BLACK HILL"},
	{"postcode": "5353", "placename": "CAMBRAI"},
	{"postcode": "5353", "placename": "KEYNETON"},
	{"postcode": "5353", "placename": "KONGOLIA"},
	{"postcode": "5353", "placename": "LANGS LANDING"},
	{"postcode": "5353", "placename": "MOCULTA"},
	{"postcode": "5353", "placename": "MOUNT MCKENZIE"},
	{"postcode": "5353", "placename": "PENRICE"},
	{"postcode": "5353", "placename": "PUNYELROO"},
	{"postcode": "5353", "placename": "SEDAN"},
	{"postcode": "5353", "placename": "SUNNYDALE"},
	{"postcode": "5353", "placename": "TOWITTA"},
	{"postcode": "5354", "placename": "BAKARA"},
	{"postcode": "5354", "placename": "BAKARA WELL"},
	{"postcode": "5354", "placename": "FISHER"},
	{"postcode": "5354", "placename": "MARKS LANDING"},
	{"postcode": "5354", "placename": "NAIDIA"},
	{"postcode": "5354", "placename": "PUNYELROO"},
	{"postcode": "5354", "placename": "SWAN REACH"},
	{"postcode": "5355", "placename": "DAVEYSTON"},
	{"postcode": "5355", "placename": "EBENEZER"},
	{"postcode": "5355", "placename": "LIGHT PASS"},
	{"postcode": "5355", "placename": "MARANANGA"},
	{"postcode": "5355", "placename": "MOPPA"},
	{"postcode": "5355", "placename": "NURIOOTPA"},
	{"postcode": "5355", "placename": "SEPPELTSFIELD"},
	{"postcode": "5355", "placename": "STOCKWELL"},
	{"postcode": "5356", "placename": "ANNADALE"},
	{"postcode": "5356", "placename": "DUTTON"},
	{"postcode": "5356", "placename": "DUTTON EAST"},
	{"postcode": "5356", "placename": "SANDLETON"},
	{"postcode": "5356", "placename": "ST KITTS"},
	{"postcode": "5356", "placename": "STEINFELD"},
	{"postcode": "5356", "placename": "TRURO"},
	{"postcode": "5357", "placename": "BLANCHETOWN"},
	{"postcode": "5357", "placename": "MCBEAN POUND"},
	{"postcode": "5357", "placename": "MOORUNDIE"},
	{"postcode": "5357", "placename": "NEW WELL"},
	{"postcode": "5357", "placename": "NOTTS WELL"},
	{"postcode": "5357", "placename": "PAISLEY"},
	{"postcode": "5357", "placename": "WIGLEY FLAT"},
	{"postcode": "5360", "placename": "GREENOCK"},
	{"postcode": "5360", "placename": "NAIN"},
	{"postcode": "5371", "placename": "MORN HILL"},
	{"postcode": "5371", "placename": "ROSEWORTHY"},
	{"postcode": "5371", "placename": "SHEA-OAK LOG"},
	{"postcode": "5371", "placename": "TEMPLERS"},
	{"postcode": "5372", "placename": "FREELING"},
	{"postcode": "5373", "placename": "ALLENDALE NORTH"},
	{"postcode": "5373", "placename": "BAGOT WELL"},
	{"postcode": "5373", "placename": "BETHEL"},
	{"postcode": "5373", "placename": "FORDS"},
	{"postcode": "5373", "placename": "HAMILTON"},
	{"postcode": "5373", "placename": "KAPUNDA"},
	{"postcode": "5373", "placename": "KOONUNGA"},
	{"postcode": "5373", "placename": "ST JOHNS"},
	{"postcode": "5374", "placename": "AUSTRALIA PLAINS"},
	{"postcode": "5374", "placename": "BOWER"},
	{"postcode": "5374", "placename": "BROWNLOW"},
	{"postcode": "5374", "placename": "BUCHANAN"},
	{"postcode": "5374", "placename": "EUDUNDA"},
	{"postcode": "5374", "placename": "FRANKTON"},
	{"postcode": "5374", "placename": "HAMPDEN"},
	{"postcode": "5374", "placename": "HANSBOROUGH"},
	{"postcode": "5374", "placename": "JULIA"},
	{"postcode": "5374", "placename": "MOUNT MARY"},
	{"postcode": "5374", "placename": "NEALES FLAT"},
	{"postcode": "5374", "placename": "NGAPALA"},
	{"postcode": "5374", "placename": "PEEP HILL"},
	{"postcode": "5374", "placename": "POINT PASS"},
	{"postcode": "5374", "placename": "SUTHERLANDS"},
	{"postcode": "5381", "placename": "BRADY CREEK"},
	{"postcode": "5381", "placename": "BRIGHT"},
	{"postcode": "5381", "placename": "EMU DOWNS"},
	{"postcode": "5381", "placename": "GERANIUM PLAINS"},
	{"postcode": "5381", "placename": "HALLELUJA HILLS"},
	{"postcode": "5381", "placename": "HALLELUJAH HILLS"},
	{"postcode": "5381", "placename": "ROBERTSTOWN"},
	{"postcode": "5381", "placename": "ROCKY PLAIN"},
	{"postcode": "5381", "placename": "WORLDS END"},
	{"postcode": "5381", "placename": "WORLDS END CREEK"},
	{"postcode": "5400", "placename": "MAGDALA"},
	{"postcode": "5400", "placename": "PINKERTON PLAINS"},
	{"postcode": "5400", "placename": "WASLEYS"},
	{"postcode": "5400", "placename": "WOOLSHEDS"},
	{"postcode": "5401", "placename": "ALMA"},
	{"postcode": "5401", "placename": "HAMLEY BRIDGE"},
	{"postcode": "5401", "placename": "SALTER SPRINGS"},
	{"postcode": "5410", "placename": "LINWOOD"},
	{"postcode": "5410", "placename": "STOCKPORT"},
	{"postcode": "5411", "placename": "GILES CORNER"},
	{"postcode": "5411", "placename": "TARLEE"},
	{"postcode": "5412", "placename": "NAVAN"},
	{"postcode": "5412", "placename": "RHYNIE"},
	{"postcode": "5412", "placename": "RIVERTON"},
	{"postcode": "5412", "placename": "WOOLSHED FLAT"},
	{"postcode": "5413", "placename": "APOINGA"},
	{"postcode": "5413", "placename": "BLACK SPRINGS"},
	{"postcode": "5413", "placename": "MARRABEL"},
	{"postcode": "5413", "placename": "SADDLEWORTH"},
	{"postcode": "5413", "placename": "STEELTON"},
	{"postcode": "5413", "placename": "TARNMA"},
	{"postcode": "5413", "placename": "TOTHILL BELT"},
	{"postcode": "5413", "placename": "TOTHILL CREEK"},
	{"postcode": "5413", "placename": "WATERLOO"},
	{"postcode": "5414", "placename": "MANOORA"},
	{"postcode": "5415", "placename": "MINTARO"},
	{"postcode": "5415", "placename": "STANLEY"},
	{"postcode": "5416", "placename": "FARRELL FLAT"},
	{"postcode": "5416", "placename": "PORTER LAGOON"},
	{"postcode": "5417", "placename": "BALAH"},
	{"postcode": "5417", "placename": "BALDINA"},
	{"postcode": "5417", "placename": "BOOBOROWIE"},
	{"postcode": "5417", "placename": "BUNYUNG"},
	{"postcode": "5417", "placename": "BURRA"},
	{"postcode": "5417", "placename": "BURRA EASTERN DISTRICTS"},
	{"postcode": "5417", "placename": "CANEGRASS"},
	{"postcode": "5417", "placename": "DANGGALI"},
	{"postcode": "5417", "placename": "FARAWAY HILL"},
	{"postcode": "5417", "placename": "GLUEPOT"},
	{"postcode": "5417", "placename": "GUM CREEK"},
	{"postcode": "5417", "placename": "HANSON"},
	{"postcode": "5417", "placename": "KOONOONA"},
	{"postcode": "5417", "placename": "LEIGHTON"},
	{"postcode": "5417", "placename": "MONGOLATA"},
	{"postcode": "5417", "placename": "NORTH BOOBOROWIE"},
	{"postcode": "5417", "placename": "OAKVALE STATION"},
	{"postcode": "5417", "placename": "OLD KOOMOOLOO"},
	{"postcode": "5417", "placename": "PARCOOLA"},
	{"postcode": "5417", "placename": "PINE VALLEY STATION"},
	{"postcode": "5417", "placename": "QUONDONG"},
	{"postcode": "5417", "placename": "STURT VALE"},
	{"postcode": "5417", "placename": "WARNES"},
	{"postcode": "5418", "placename": "COLLINSVILLE"},
	{"postcode": "5418", "placename": "MOUNT BRYAN"},
	{"postcode": "5419", "placename": "CANOWIE"},
	{"postcode": "5419", "placename": "HALLETT"},
	{"postcode": "5419", "placename": "MOUNT BRYAN EAST"},
	{"postcode": "5419", "placename": "PINE CREEK"},
	{"postcode": "5419", "placename": "ULOOLOO"},
	{"postcode": "5419", "placename": "WILLALO"},
	{"postcode": "5419", "placename": "WONNA"},
	{"postcode": "5420", "placename": "CANOWIE BELT"},
	{"postcode": "5420", "placename": "WHYTE YARCOWIE"},
	{"postcode": "5421", "placename": "FRANKLYN"},
	{"postcode": "5421", "placename": "TEROWIE"},
	{"postcode": "5422", "placename": "CAVENAGH"},
	{"postcode": "5422", "placename": "DAWSON"},
	{"postcode": "5422", "placename": "ERSKINE"},
	{"postcode": "5422", "placename": "HARDY"},
	{"postcode": "5422", "placename": "MANNANARIE"},
	{"postcode": "5422", "placename": "MINVALARA"},
	{"postcode": "5422", "placename": "OODLA WIRRA"},
	{"postcode": "5422", "placename": "PARATOO"},
	{"postcode": "5422", "placename": "PARNAROO"},
	{"postcode": "5422", "placename": "PETERBOROUGH"},
	{"postcode": "5422", "placename": "SUNNYBRAE"},
	{"postcode": "5422", "placename": "UCOLTA"},
	{"postcode": "5422", "placename": "WAROONEE"},
	{"postcode": "5422", "placename": "YATINA"},
	{"postcode": "5431", "placename": "AMYTON"},
	{"postcode": "5431", "placename": "BLACK ROCK"},
	{"postcode": "5431", "placename": "COOMOOROO"},
	{"postcode": "5431", "placename": "EURELIA"},
	{"postcode": "5431", "placename": "HAMMOND"},
	{"postcode": "5431", "placename": "JOHNBURG"},
	{"postcode": "5431", "placename": "JOHNBURGH"},
	{"postcode": "5431", "placename": "MINBURRA"},
	{"postcode": "5431", "placename": "MINBURRA PLAIN"},
	{"postcode": "5431", "placename": "MINBURRA STATION"},
	{"postcode": "5431", "placename": "MORCHARD"},
	{"postcode": "5431", "placename": "NORTH HILLS"},
	{"postcode": "5431", "placename": "ORROROO"},
	{"postcode": "5431", "placename": "PEKINA"},
	{"postcode": "5431", "placename": "TARCOWIE"},
	{"postcode": "5431", "placename": "WALLAWAY"},
	{"postcode": "5431", "placename": "WALLOWAY"},
	{"postcode": "5431", "placename": "WILLOWIE"},
	{"postcode": "5431", "placename": "YALPARA"},
	{"postcode": "5432", "placename": "BARATTA"},
	{"postcode": "5432", "placename": "BELTON"},
	{"postcode": "5432", "placename": "BIBLIANDO"},
	{"postcode": "5432", "placename": "CARRIETON"},
	{"postcode": "5432", "placename": "CRADOCK"},
	{"postcode": "5432", "placename": "HOLOWILIENA"},
	{"postcode": "5432", "placename": "HOLOWILIENA SOUTH"},
	{"postcode": "5432", "placename": "MOOCKRA"},
	{"postcode": "5432", "placename": "THREE CREEKS"},
	{"postcode": "5432", "placename": "WILCOWIE"},
	{"postcode": "5432", "placename": "WILLIPPA"},
	{"postcode": "5432", "placename": "WITCHITIE"},
	{"postcode": "5432", "placename": "YANYARRIE"},
	{"postcode": "5433", "placename": "BRUCE"},
	{"postcode": "5433", "placename": "QUORN"},
	{"postcode": "5433", "placename": "SALTIA"},
	{"postcode": "5433", "placename": "STEPHENSTON"},
	{"postcode": "5433", "placename": "WILLOCHRA"},
	{"postcode": "5433", "placename": "YARRAH"},
	{"postcode": "5434", "placename": "BARNDIOOTA"},
	{"postcode": "5434", "placename": "BLACK HILL STATION"},
	{"postcode": "5434", "placename": "FLINDERS RANGES"},
	{"postcode": "5434", "placename": "HAWKER"},
	{"postcode": "5434", "placename": "KANYAKA"},
	{"postcode": "5434", "placename": "MOUNT HAVELOCK"},
	{"postcode": "5434", "placename": "PRELINNA"},
	{"postcode": "5434", "placename": "SHAGGY RIDGE"},
	{"postcode": "5434", "placename": "UPALINNA"},
	{"postcode": "5434", "placename": "WILLOW SPRINGS"},
	{"postcode": "5434", "placename": "WORUMBA"},
	{"postcode": "5440", "placename": "ABMINGA STATION"},
	{"postcode": "5440", "placename": "BENDA"},
	{"postcode": "5440", "placename": "BIMBOWRIE"},
	{"postcode": "5440", "placename": "BINDARRAH"},
	{"postcode": "5440", "placename": "BOOLCOOMATTA"},
	{"postcode": "5440", "placename": "BULLOO CREEK"},
	{"postcode": "5440", "placename": "COCKBURN"},
	{"postcode": "5440", "placename": "CURNAMONA"},
	{"postcode": "5440", "placename": "DEVONBOROUGH DOWNS"},
	{"postcode": "5440", "placename": "ERUDINA"},
	{"postcode": "5440", "placename": "FLORINA STATION"},
	{"postcode": "5440", "placename": "FROME DOWNS"},
	{"postcode": "5440", "placename": "GRAMPUS"},
	{"postcode": "5440", "placename": "KALABITY"},
	{"postcode": "5440", "placename": "KALKAROO"},
	{"postcode": "5440", "placename": "KOONAMORE"},
	{"postcode": "5440", "placename": "LAKE FROME"},
	{"postcode": "5440", "placename": "MANNA HILL"},
	{"postcode": "5440", "placename": "MANUNDA STATION"},
	{"postcode": "5440", "placename": "MARTINS WELL"},
	{"postcode": "5440", "placename": "MELTON STATION"},
	{"postcode": "5440", "placename": "MINGARY"},
	{"postcode": "5440", "placename": "MOOLEULOOLOO"},
	{"postcode": "5440", "placename": "MOUNT VICTOR STATION"},
	{"postcode": "5440", "placename": "MULYUNGARIE"},
	{"postcode": "5440", "placename": "MUNDI MUNDI"},
	{"postcode": "5440", "placename": "MUTOOROO"},
	{"postcode": "5440", "placename": "NACKARA"},
	{"postcode": "5440", "placename": "NETLEY GAP"},
	{"postcode": "5440", "placename": "OLARY"},
	{"postcode": "5440", "placename": "OULNINA"},
	{"postcode": "5440", "placename": "OULNINA PARK"},
	{"postcode": "5440", "placename": "OUTALPA"},
	{"postcode": "5440", "placename": "PINE CREEK STATION"},
	{"postcode": "5440", "placename": "PLUMBAGO"},
	{"postcode": "5440", "placename": "PUALCO RANGE"},
	{"postcode": "5440", "placename": "QUINYAMBIE"},
	{"postcode": "5440", "placename": "TEPCO STATION"},
	{"postcode": "5440", "placename": "TIKALINA"},
	{"postcode": "5440", "placename": "WADNAMINGA"},
	{"postcode": "5440", "placename": "WAUKARINGA"},
	{"postcode": "5440", "placename": "WEEKEROO"},
	{"postcode": "5440", "placename": "WIAWERA"},
	{"postcode": "5440", "placename": "WINNININNIE"},
	{"postcode": "5440", "placename": "WOMPINIE"},
	{"postcode": "5440", "placename": "YARRAMBA"},
	{"postcode": "5440", "placename": "YUNTA"},
	{"postcode": "5451", "placename": "AUBURN"},
	{"postcode": "5451", "placename": "UNDALYA"},
	{"postcode": "5452", "placename": "LEASINGHAM"},
	{"postcode": "5452", "placename": "WATERVALE"},
	{"postcode": "5453", "placename": "ARMAGH"},
	{"postcode": "5453", "placename": "BARINIA"},
	{"postcode": "5453", "placename": "BENBOURNIE"},
	{"postcode": "5453", "placename": "BOCONNOC PARK"},
	{"postcode": "5453", "placename": "CLARE"},
	{"postcode": "5453", "placename": "EMU FLAT"},
	{"postcode": "5453", "placename": "GILLENTOWN"},
	{"postcode": "5453", "placename": "HILL RIVER"},
	{"postcode": "5453", "placename": "HOYLETON"},
	{"postcode": "5453", "placename": "KYBUNGA"},
	{"postcode": "5453", "placename": "PENWORTHAM"},
	{"postcode": "5453", "placename": "POLISH HILL RIVER"},
	{"postcode": "5453", "placename": "SEVENHILL"},
	{"postcode": "5453", "placename": "SPRING FARM"},
	{"postcode": "5453", "placename": "SPRING GULLY"},
	{"postcode": "5453", "placename": "STANLEY FLAT"},
	{"postcode": "5454", "placename": "ANDREWS"},
	{"postcode": "5454", "placename": "BROUGHTON RIVER VALLEY"},
	{"postcode": "5454", "placename": "EUROMINA"},
	{"postcode": "5454", "placename": "HACKLINS CORNER"},
	{"postcode": "5454", "placename": "MAYFIELD"},
	{"postcode": "5454", "placename": "SPALDING"},
	{"postcode": "5454", "placename": "WASHPOOL"},
	{"postcode": "5455", "placename": "HILLTOWN"},
	{"postcode": "5460", "placename": "BARABBA"},
	{"postcode": "5460", "placename": "OWEN"},
	{"postcode": "5460", "placename": "PINERY"},
	{"postcode": "5460", "placename": "STOCKYARD CREEK"},
	{"postcode": "5461", "placename": "BALAKLAVA"},
	{"postcode": "5461", "placename": "BOWILLIA"},
	{"postcode": "5461", "placename": "DALKEY"},
	{"postcode": "5461", "placename": "ERITH"},
	{"postcode": "5461", "placename": "EVERARD CENTRAL"},
	{"postcode": "5461", "placename": "GOYDER"},
	{"postcode": "5461", "placename": "HALBURY"},
	{"postcode": "5461", "placename": "HOSKIN CORNER"},
	{"postcode": "5461", "placename": "MOUNT TEMPLETON"},
	{"postcode": "5461", "placename": "SAINTS"},
	{"postcode": "5461", "placename": "STOW"},
	{"postcode": "5461", "placename": "WATCHMAN"},
	{"postcode": "5461", "placename": "WHITWARTA"},
	{"postcode": "5462", "placename": "BLYTH"},
	{"postcode": "5464", "placename": "ANAMA"},
	{"postcode": "5464", "placename": "BRINKWORTH"},
	{"postcode": "5464", "placename": "BUNGAREE"},
	{"postcode": "5464", "placename": "CONDOWIE"},
	{"postcode": "5464", "placename": "HART"},
	{"postcode": "5464", "placename": "KOOLUNGA"},
	{"postcode": "5464", "placename": "MAROLA"},
	{"postcode": "5464", "placename": "ROCHESTER"},
	{"postcode": "5470", "placename": "YACKA"},
	{"postcode": "5471", "placename": "GULNARE"},
	{"postcode": "5472", "placename": "GEORGETOWN"},
	{"postcode": "5473", "placename": "GLADSTONE"},
	{"postcode": "5480", "placename": "APPILA"},
	{"postcode": "5480", "placename": "LAURA"},
	{"postcode": "5480", "placename": "STONE HUT"},
	{"postcode": "5481", "placename": "BANGOR"},
	{"postcode": "5481", "placename": "MURRAY TOWN"},
	{"postcode": "5481", "placename": "WIRRABARA"},
	{"postcode": "5481", "placename": "WONGYARRA"},
	{"postcode": "5482", "placename": "BOOLEROO CENTRE"},
	{"postcode": "5482", "placename": "WEPOWIE"},
	{"postcode": "5483", "placename": "MELROSE"},
	{"postcode": "5485", "placename": "WILMINGTON"},
	{"postcode": "5490", "placename": "CALTOWIE"},
	{"postcode": "5490", "placename": "CALTOWIE NORTH"},
	{"postcode": "5490", "placename": "CALTOWIE WEST"},
	{"postcode": "5491", "placename": "BELALIE EAST"},
	{"postcode": "5491", "placename": "BELALIE NORTH"},
	{"postcode": "5491", "placename": "BUNDALEER GARDENS"},
	{"postcode": "5491", "placename": "BUNDALEER NORTH"},
	{"postcode": "5491", "placename": "HORNSDALE"},
	{"postcode": "5491", "placename": "JAMESTOWN"},
	{"postcode": "5491", "placename": "WEST BUNDALEER"},
	{"postcode": "5493", "placename": "YONGALA"},
	{"postcode": "5495", "placename": "BAROOTA"},
	{"postcode": "5495", "placename": "GERMEIN BAY"},
	{"postcode": "5495", "placename": "MAMBRAY CREEK"},
	{"postcode": "5495", "placename": "NECTAR BROOK"},
	{"postcode": "5495", "placename": "PORT FLINDERS"},
	{"postcode": "5495", "placename": "PORT GERMEIN"},
	{"postcode": "5495", "placename": "WEEROONA ISLAND"},
	{"postcode": "5501", "placename": "AVON"},
	{"postcode": "5501", "placename": "CALOMBA"},
	{"postcode": "5501", "placename": "DUBLIN"},
	{"postcode": "5501", "placename": "LEWISTON"},
	{"postcode": "5501", "placename": "LONG PLAINS"},
	{"postcode": "5501", "placename": "LOWER LIGHT"},
	{"postcode": "5501", "placename": "MIDDLE BEACH"},
	{"postcode": "5501", "placename": "PARHAM"},
	{"postcode": "5501", "placename": "PORT GAWLER"},
	{"postcode": "5501", "placename": "THOMPSON BEACH"},
	{"postcode": "5501", "placename": "TWO WELLS"},
	{"postcode": "5501", "placename": "WEBB BEACH"},
	{"postcode": "5501", "placename": "WILD HORSE PLAINS"},
	{"postcode": "5501", "placename": "WINDSOR"},
	{"postcode": "5502", "placename": "FISCHER"},
	{"postcode": "5502", "placename": "GRACE PLAINS"},
	{"postcode": "5502", "placename": "KORUNYE"},
	{"postcode": "5502", "placename": "MALLALA"},
	{"postcode": "5502", "placename": "REDBANKS"},
	{"postcode": "5502", "placename": "REEVES PLAINS"},
	{"postcode": "5510", "placename": "LOCHIEL"},
	{"postcode": "5520", "placename": "BARUNGA GAP"},
	{"postcode": "5520", "placename": "BUMBUNGA"},
	{"postcode": "5520", "placename": "BURNSFIELD"},
	{"postcode": "5520", "placename": "GLEESON HILL"},
	{"postcode": "5520", "placename": "SNOWTOWN"},
	{"postcode": "5520", "placename": "WOKURNA"},
	{"postcode": "5521", "placename": "REDHILL"},
	{"postcode": "5522", "placename": "FISHERMAN BAY"},
	{"postcode": "5522", "placename": "LOWER BROUGHTON"},
	{"postcode": "5522", "placename": "PORT BROUGHTON"},
	{"postcode": "5522", "placename": "WARD HILL"},
	{"postcode": "5523", "placename": "BEETALOO VALLEY"},
	{"postcode": "5523", "placename": "CLEMENTS GAP"},
	{"postcode": "5523", "placename": "CRYSTAL BROOK"},
	{"postcode": "5523", "placename": "HUDDLESTON"},
	{"postcode": "5523", "placename": "MERRITON"},
	{"postcode": "5523", "placename": "NARRIDY"},
	{"postcode": "5523", "placename": "NUROM"},
	{"postcode": "5523", "placename": "WANDEARAH"},
	{"postcode": "5523", "placename": "WANDEARAH EAST"},
	{"postcode": "5523", "placename": "WANDEARAH WEST"},
	{"postcode": "5540", "placename": "BUNGAMA"},
	{"postcode": "5540", "placename": "COONAMIA"},
	{"postcode": "5540", "placename": "LOWER BROUGHTON"},
	{"postcode": "5540", "placename": "NAPPERBY"},
	{"postcode": "5540", "placename": "NELSHABY"},
	{"postcode": "5540", "placename": "PIRIE EAST"},
	{"postcode": "5540", "placename": "PORT DAVIS"},
	{"postcode": "5540", "placename": "PORT PIRIE"},
	{"postcode": "5540", "placename": "PORT PIRIE SOUTH"},
	{"postcode": "5540", "placename": "PORT PIRIE WEST"},
	{"postcode": "5540", "placename": "RISDON PARK"},
	{"postcode": "5540", "placename": "RISDON PARK SOUTH"},
	{"postcode": "5540", "placename": "SOLOMONTOWN"},
	{"postcode": "5540", "placename": "TELOWIE"},
	{"postcode": "5540", "placename": "WARNERTOWN"},
	{"postcode": "5550", "placename": "BEAUFORT"},
	{"postcode": "5550", "placename": "BOWMANS"},
	{"postcode": "5550", "placename": "INKERMAN"},
	{"postcode": "5550", "placename": "KALLORA"},
	{"postcode": "5550", "placename": "NANTAWARRA"},
	{"postcode": "5550", "placename": "PORT WAKEFIELD"},
	{"postcode": "5550", "placename": "PROOF RANGE"},
	{"postcode": "5550", "placename": "SOUTH HUMMOCKS"},
	{"postcode": "5552", "placename": "KAINTON"},
	{"postcode": "5552", "placename": "KULPARA"},
	{"postcode": "5552", "placename": "MELTON"},
	{"postcode": "5552", "placename": "PASKEVILLE"},
	{"postcode": "5552", "placename": "PORT ARTHUR"},
	{"postcode": "5552", "placename": "SUNNYVALE"},
	{"postcode": "5552", "placename": "THRINGTON"},
	{"postcode": "5554", "placename": "BOORS PLAIN"},
	{"postcode": "5554", "placename": "CUNLIFFE"},
	{"postcode": "5554", "placename": "JERICHO"},
	{"postcode": "5554", "placename": "JERUSALEM"},
	{"postcode": "5554", "placename": "KADINA"},
	{"postcode": "5554", "placename": "MATTA FLAT"},
	{"postcode": "5554", "placename": "NEW TOWN"},
	{"postcode": "5554", "placename": "THOMAS PLAIN"},
	{"postcode": "5554", "placename": "THOMAS PLAINS"},
	{"postcode": "5554", "placename": "WALLAROO MINES"},
	{"postcode": "5554", "placename": "WILLAMULKA"},
	{"postcode": "5555", "placename": "ALFORD"},
	{"postcode": "5555", "placename": "COLLINSFIELD"},
	{"postcode": "5555", "placename": "DOWLING"},
	{"postcode": "5555", "placename": "DOWLINGVILLE"},
	{"postcode": "5555", "placename": "HOPE GAP"},
	{"postcode": "5555", "placename": "KULPARA"},
	{"postcode": "5555", "placename": "LAKE VIEW"},
	{"postcode": "5555", "placename": "MELTON"},
	{"postcode": "5555", "placename": "MUNDOORA"},
	{"postcode": "5555", "placename": "TICKERA"},
	{"postcode": "5555", "placename": "WINULTA"},
	{"postcode": "5556", "placename": "NORTH BEACH"},
	{"postcode": "5556", "placename": "WALLAROO"},
	{"postcode": "5556", "placename": "WALLAROO PLAIN"},
	{"postcode": "5556", "placename": "WARBURTO"},
	{"postcode": "5558", "placename": "AGERY"},
	{"postcode": "5558", "placename": "CROSS ROADS"},
	{"postcode": "5558", "placename": "EAST MOONTA"},
	{"postcode": "5558", "placename": "HAMLEY"},
	{"postcode": "5558", "placename": "KOOROONA"},
	{"postcode": "5558", "placename": "MOONTA"},
	{"postcode": "5558", "placename": "MOONTA BAY"},
	{"postcode": "5558", "placename": "MOONTA MINES"},
	{"postcode": "5558", "placename": "NALYAPPA"},
	{"postcode": "5558", "placename": "NORTH MOONTA"},
	{"postcode": "5558", "placename": "NORTH YELTA"},
	{"postcode": "5558", "placename": "PARAMATTA"},
	{"postcode": "5558", "placename": "PORT HUGHES"},
	{"postcode": "5558", "placename": "YELTA"},
	{"postcode": "5560", "placename": "BUTE"},
	{"postcode": "5560", "placename": "NINNES"},
	{"postcode": "5570", "placename": "CLINTON"},
	{"postcode": "5570", "placename": "CLINTON CENTRE"},
	{"postcode": "5570", "placename": "PORT CLINTON"},
	{"postcode": "5570", "placename": "PRICE"},
	{"postcode": "5570", "placename": "WINULTA"},
	{"postcode": "5571", "placename": "ARDROSSAN"},
	{"postcode": "5571", "placename": "BLACK POINT"},
	{"postcode": "5571", "placename": "CUNNINGHAM"},
	{"postcode": "5571", "placename": "DOWLINGVILLE"},
	{"postcode": "5571", "placename": "JAMES WELL"},
	{"postcode": "5571", "placename": "PETERSVILLE"},
	{"postcode": "5571", "placename": "PINE POINT"},
	{"postcode": "5571", "placename": "ROGUES POINT"},
	{"postcode": "5571", "placename": "SANDILANDS"},
	{"postcode": "5571", "placename": "TIDDY WIDDY BEACH"},
	{"postcode": "5572", "placename": "ARTHURTON"},
	{"postcode": "5572", "placename": "PORT ARTHUR"},
	{"postcode": "5573", "placename": "BALGOWAN"},
	{"postcode": "5573", "placename": "CHINAMAN WELLS"},
	{"postcode": "5573", "placename": "CHINAMEN WELLS"},
	{"postcode": "5573", "placename": "MAITLAND"},
	{"postcode": "5573", "placename": "POINT PEARCE"},
	{"postcode": "5573", "placename": "PORT VICTORIA"},
	{"postcode": "5573", "placename": "SOUTH KILKERRAN"},
	{"postcode": "5573", "placename": "URANIA"},
	{"postcode": "5573", "placename": "WAURALTEE"},
	{"postcode": "5573", "placename": "WEETULTA"},
	{"postcode": "5573", "placename": "YORKE VALLEY"},
	{"postcode": "5575", "placename": "BLUFF BEACH"},
	{"postcode": "5575", "placename": "BRENTWOOD"},
	{"postcode": "5575", "placename": "CORNY POINT"},
	{"postcode": "5575", "placename": "COUCH BEACH"},
	{"postcode": "5575", "placename": "HARDWICKE BAY"},
	{"postcode": "5575", "placename": "KOOLYWURTIE"},
	{"postcode": "5575", "placename": "MARION BAY"},
	{"postcode": "5575", "placename": "MINLATON"},
	{"postcode": "5575", "placename": "PARSONS BEACH"},
	{"postcode": "5575", "placename": "POINT SOUTTAR"},
	{"postcode": "5575", "placename": "POINT TURTON"},
	{"postcode": "5575", "placename": "PORT JULIA"},
	{"postcode": "5575", "placename": "PORT RICKABY"},
	{"postcode": "5575", "placename": "RAMSAY"},
	{"postcode": "5575", "placename": "STENHOUSE BAY"},
	{"postcode": "5575", "placename": "THE PINES"},
	{"postcode": "5575", "placename": "WHITE HUT"},
	{"postcode": "5575", "placename": "WOOL BAY"},
	{"postcode": "5576", "placename": "HONITON"},
	{"postcode": "5576", "placename": "PORT MOOROWIE"},
	{"postcode": "5576", "placename": "YORKETOWN"},
	{"postcode": "5577", "placename": "COUCH BEACH"},
	{"postcode": "5577", "placename": "FOUL BAY"},
	{"postcode": "5577", "placename": "INNESTON"},
	{"postcode": "5577", "placename": "POINT SOUTTAR"},
	{"postcode": "5577", "placename": "THE PINES"},
	{"postcode": "5577", "placename": "WAROOKA"},
	{"postcode": "5580", "placename": "CURRAMULKA"},
	{"postcode": "5580", "placename": "PORT JULIA"},
	{"postcode": "5581", "placename": "PORT VINCENT"},
	{"postcode": "5581", "placename": "SHEAOAK FLAT"},
	{"postcode": "5582", "placename": "PORT GILES"},
	{"postcode": "5582", "placename": "STANSBURY"},
	{"postcode": "5583", "placename": "COOBOWIE"},
	{"postcode": "5583", "placename": "EDITHBURGH"},
	{"postcode": "5583", "placename": "SULTANA POINT"},
	{"postcode": "5600", "placename": "IRON BARON"},
	{"postcode": "5600", "placename": "WHYALLA"},
	{"postcode": "5600", "placename": "WHYALLA DC"},
	{"postcode": "5600", "placename": "WHYALLA PLAYFORD"},
	{"postcode": "5601", "placename": "BACKY POINT"},
	{"postcode": "5601", "placename": "DOUGLAS POINT"},
	{"postcode": "5601", "placename": "DOUGLAS POINT SOUTH"},
	{"postcode": "5601", "placename": "FALSE BAY"},
	{"postcode": "5601", "placename": "FITZGERALD BAY"},
	{"postcode": "5601", "placename": "IRON KNOB"},
	{"postcode": "5601", "placename": "POINT LOWLY"},
	{"postcode": "5601", "placename": "POINT LOWLY NORTH"},
	{"postcode": "5601", "placename": "PORT BONYTHON"},
	{"postcode": "5601", "placename": "WHYALLA BARSON"},
	{"postcode": "5602", "placename": "COWELL"},
	{"postcode": "5602", "placename": "LUCKY BAY"},
	{"postcode": "5602", "placename": "MANGALO"},
	{"postcode": "5602", "placename": "MIDGEE"},
	{"postcode": "5602", "placename": "MILTALIE"},
	{"postcode": "5602", "placename": "MINBRIE"},
	{"postcode": "5602", "placename": "MITALIE"},
	{"postcode": "5602", "placename": "MITCHELLVILLE"},
	{"postcode": "5602", "placename": "PORT GIBBON"},
	{"postcode": "5603", "placename": "ARNO BAY"},
	{"postcode": "5603", "placename": "HINCKS"},
	{"postcode": "5603", "placename": "VERRAN"},
	{"postcode": "5603", "placename": "WHARMINDA"},
	{"postcode": "5604", "placename": "PORT NEILL"},
	{"postcode": "5605", "placename": "BUTLER"},
	{"postcode": "5605", "placename": "TUMBY BAY"},
	{"postcode": "5606", "placename": "KIRTON POINT"},
	{"postcode": "5606", "placename": "PORT LINCOLN"},
	{"postcode": "5606", "placename": "PORT LINCOLN SOUTH"},
	{"postcode": "5606", "placename": "WEDGE ISLAND"},
	{"postcode": "5607", "placename": "BOSTON"},
	{"postcode": "5607", "placename": "BROOKER"},
	{"postcode": "5607", "placename": "CHARLTON GULLY"},
	{"postcode": "5607", "placename": "COFFIN BAY"},
	{"postcode": "5607", "placename": "COOMUNGA"},
	{"postcode": "5607", "placename": "COULTA"},
	{"postcode": "5607", "placename": "DUCK PONDS"},
	{"postcode": "5607", "placename": "FARM BEACH"},
	{"postcode": "5607", "placename": "FOUNTAIN"},
	{"postcode": "5607", "placename": "GREEN PATCH"},
	{"postcode": "5607", "placename": "HAWSON"},
	{"postcode": "5607", "placename": "HORSE PENINSULA"},
	{"postcode": "5607", "placename": "KARKOO"},
	{"postcode": "5607", "placename": "KELLIDIE BAY"},
	{"postcode": "5607", "placename": "KIANA"},
	{"postcode": "5607", "placename": "KOPPIO"},
	{"postcode": "5607", "placename": "LINCOLN NATIONAL PARK"},
	{"postcode": "5607", "placename": "LIPSON"},
	{"postcode": "5607", "placename": "LITTLE DOUGLAS"},
	{"postcode": "5607", "placename": "LOUTH BAY"},
	{"postcode": "5607", "placename": "MITCHELL"},
	{"postcode": "5607", "placename": "MOODY"},
	{"postcode": "5607", "placename": "MOUNT DRUMMOND"},
	{"postcode": "5607", "placename": "MOUNT DUTTON BAY"},
	{"postcode": "5607", "placename": "MOUNT HOPE"},
	{"postcode": "5607", "placename": "MURDINGA"},
	{"postcode": "5607", "placename": "NORTH SHIELDS"},
	{"postcode": "5607", "placename": "PEACHNA"},
	{"postcode": "5607", "placename": "PEARLAH"},
	{"postcode": "5607", "placename": "POINT BOSTON"},
	{"postcode": "5607", "placename": "POONINDIE"},
	{"postcode": "5607", "placename": "PORT LINCOLN"},
	{"postcode": "5607", "placename": "SHERINGA"},
	{"postcode": "5607", "placename": "SLEAFORD"},
	{"postcode": "5607", "placename": "SULLIVAN"},
	{"postcode": "5607", "placename": "TIATUKIA"},
	{"postcode": "5607", "placename": "TOOLIGIE"},
	{"postcode": "5607", "placename": "TOOTENILLA"},
	{"postcode": "5607", "placename": "TULKA"},
	{"postcode": "5607", "placename": "TULKA NORTH"},
	{"postcode": "5607", "placename": "ULEY"},
	{"postcode": "5607", "placename": "UNGARRA"},
	{"postcode": "5607", "placename": "VENUS BAY"},
	{"postcode": "5607", "placename": "WANGARY"},
	{"postcode": "5607", "placename": "WANILLA"},
	{"postcode": "5607", "placename": "WARRACHIE"},
	{"postcode": "5607", "placename": "WARROW"},
	{"postcode": "5607", "placename": "WARUNDA"},
	{"postcode": "5607", "placename": "WHITES FLAT"},
	{"postcode": "5607", "placename": "WHITES RIVER"},
	{"postcode": "5607", "placename": "YALLUNDA FLAT"},
	{"postcode": "5608", "placename": "MULLAQUANA"},
	{"postcode": "5608", "placename": "WHYALLA NORRIE"},
	{"postcode": "5608", "placename": "WHYALLA NORRIE EAST"},
	{"postcode": "5608", "placename": "WHYALLA NORRIE NORTH"},
	{"postcode": "5608", "placename": "WHYALLA STUART"},
	{"postcode": "5609", "placename": "COWLEDS LANDING"},
	{"postcode": "5609", "placename": "MIDDLEBACK RANGE"},
	{"postcode": "5609", "placename": "MURNINNIE BEACH"},
	{"postcode": "5609", "placename": "WHYALLA JENKINS"},
	{"postcode": "5611", "placename": "COOYERDOO"},
	{"postcode": "5611", "placename": "CORUNNA STATION"},
	{"postcode": "5611", "placename": "GILLES DOWNS"},
	{"postcode": "5611", "placename": "IRON BARON"},
	{"postcode": "5611", "placename": "IRON KNOB"},
	{"postcode": "5611", "placename": "KATUNGA STATION"},
	{"postcode": "5611", "placename": "LAKE GILLES"},
	{"postcode": "5611", "placename": "MYOLA STATION"},
	{"postcode": "5611", "placename": "SECRET ROCKS"},
	{"postcode": "5630", "placename": "EDILILLIE"},
	{"postcode": "5630", "placename": "EDILLILIE"},
	{"postcode": "5631", "placename": "COCKALEECHIE"},
	{"postcode": "5631", "placename": "CUMMINS"},
	{"postcode": "5632", "placename": "KAPINNIE"},
	{"postcode": "5632", "placename": "KARKOO"},
	{"postcode": "5632", "placename": "MITCHELL"},
	{"postcode": "5632", "placename": "YEELANNA"},
	{"postcode": "5633", "placename": "BOONERDO"},
	{"postcode": "5633", "placename": "LOCK"},
	{"postcode": "5633", "placename": "ULYERRA"},
	{"postcode": "5640", "placename": "CAMPOONA"},
	{"postcode": "5640", "placename": "CLEVE"},
	{"postcode": "5640", "placename": "JAMIESON"},
	{"postcode": "5640", "placename": "WADDIKEE"},
	{"postcode": "5641", "placename": "BARNA"},
	{"postcode": "5641", "placename": "BUCKLEBOO"},
	{"postcode": "5641", "placename": "BUNGEROO"},
	{"postcode": "5641", "placename": "CARALUE"},
	{"postcode": "5641", "placename": "CORTLINYE"},
	{"postcode": "5641", "placename": "CUNYARIE"},
	{"postcode": "5641", "placename": "KELLY"},
	{"postcode": "5641", "placename": "KIMBA"},
	{"postcode": "5641", "placename": "MOSELEY"},
	{"postcode": "5641", "placename": "PANITYA"},
	{"postcode": "5641", "placename": "PINKAWILLINIE"},
	{"postcode": "5641", "placename": "SOLOMON"},
	{"postcode": "5641", "placename": "WILCHERRY"},
	{"postcode": "5641", "placename": "YALANDA"},
	{"postcode": "5641", "placename": "YELTANA"},
	{"postcode": "5642", "placename": "DARKE PEAK"},
	{"postcode": "5642", "placename": "HAMBIDGE"},
	{"postcode": "5642", "placename": "KIELPA"},
	{"postcode": "5642", "placename": "MURLONG"},
	{"postcode": "5642", "placename": "RUDALL"},
	{"postcode": "5650", "placename": "COOTRA"},
	{"postcode": "5650", "placename": "KOONGAWA"},
	{"postcode": "5650", "placename": "WARRAMBOO"},
	{"postcode": "5651", "placename": "KYANCUTTA"},
	{"postcode": "5652", "placename": "PANEY"},
	{"postcode": "5652", "placename": "PYGERY"},
	{"postcode": "5652", "placename": "WUDINNA"},
	{"postcode": "5653", "placename": "YANINEE"},
	{"postcode": "5654", "placename": "COCATA"},
	{"postcode": "5654", "placename": "KARCULTABY"},
	{"postcode": "5654", "placename": "MINNIPA"},
	{"postcode": "5654", "placename": "MOUNT DAMPER"},
	{"postcode": "5655", "placename": "BOCKELBERG"},
	{"postcode": "5655", "placename": "GAWLER RANGES"},
	{"postcode": "5655", "placename": "KALDOONERA"},
	{"postcode": "5655", "placename": "LOCKES CLAYPAN"},
	{"postcode": "5655", "placename": "NARLABY"},
	{"postcode": "5655", "placename": "POOCHERA"},
	{"postcode": "5655", "placename": "PYGERY"},
	{"postcode": "5660", "placename": "CHILPENUNDA"},
	{"postcode": "5660", "placename": "CUNGENA"},
	{"postcode": "5661", "placename": "KOOLGERA"},
	{"postcode": "5661", "placename": "PIMBAACLA"},
	{"postcode": "5661", "placename": "WALLALA"},
	{"postcode": "5661", "placename": "WIRRULLA"},
	{"postcode": "5661", "placename": "YANTANABIE"},
	{"postcode": "5670", "placename": "BRAMFIELD"},
	{"postcode": "5670", "placename": "COLTON"},
	{"postcode": "5670", "placename": "COOLILLIE"},
	{"postcode": "5670", "placename": "ELLISTON"},
	{"postcode": "5670", "placename": "KAPPAWANTA"},
	{"postcode": "5670", "placename": "MOUNT JOY"},
	{"postcode": "5670", "placename": "MOUNT WEDGE"},
	{"postcode": "5670", "placename": "PALKAGEE"},
	{"postcode": "5670", "placename": "POLDA"},
	{"postcode": "5670", "placename": "TALIA"},
	{"postcode": "5670", "placename": "ULYERRA"},
	{"postcode": "5671", "placename": "BAIRD BAY"},
	{"postcode": "5671", "placename": "CALCA"},
	{"postcode": "5671", "placename": "COLLEY"},
	{"postcode": "5671", "placename": "MORTANA"},
	{"postcode": "5671", "placename": "MOUNT COOPER"},
	{"postcode": "5671", "placename": "PORT KENNY"},
	{"postcode": "5671", "placename": "TYRINGA"},
	{"postcode": "5671", "placename": "WITERA"},
	{"postcode": "5680", "placename": "CARAWA"},
	{"postcode": "5680", "placename": "CHANDADA"},
	{"postcode": "5680", "placename": "CHINBINGINA"},
	{"postcode": "5680", "placename": "EBA ANCHORAGE"},
	{"postcode": "5680", "placename": "HASLAM"},
	{"postcode": "5680", "placename": "INKSTER"},
	{"postcode": "5680", "placename": "LAURA BAY"},
	{"postcode": "5680", "placename": "MARYVALE"},
	{"postcode": "5680", "placename": "MUDAMUCKLA"},
	{"postcode": "5680", "placename": "NUNJIKOMPITA"},
	{"postcode": "5680", "placename": "PERLUBIE"},
	{"postcode": "5680", "placename": "PETINA"},
	{"postcode": "5680", "placename": "PIEDNIPPIE"},
	{"postcode": "5680", "placename": "PINJARRA STATION"},
	{"postcode": "5680", "placename": "PUNTABIE"},
	{"postcode": "5680", "placename": "PUREBA"},
	{"postcode": "5680", "placename": "SCEALE BAY"},
	{"postcode": "5680", "placename": "SMOKY BAY"},
	{"postcode": "5680", "placename": "STREAKY BAY"},
	{"postcode": "5680", "placename": "WESTALL"},
	{"postcode": "5680", "placename": "YANERBIE"},
	{"postcode": "5690", "placename": "BOOKABIE"},
	{"postcode": "5690", "placename": "CEDUNA"},
	{"postcode": "5690", "placename": "CEDUNA WATERS"},
	{"postcode": "5690", "placename": "CHARRA"},
	{"postcode": "5690", "placename": "CHUNDARIA"},
	{"postcode": "5690", "placename": "COORABIE"},
	{"postcode": "5690", "placename": "DENIAL BAY"},
	{"postcode": "5690", "placename": "FOWLERS BAY"},
	{"postcode": "5690", "placename": "KALANBI"},
	{"postcode": "5690", "placename": "KOONIBBA"},
	{"postcode": "5690", "placename": "MALTEE"},
	{"postcode": "5690", "placename": "MERGHINY"},
	{"postcode": "5690", "placename": "MITCHIDY MOOLA"},
	{"postcode": "5690", "placename": "NADIA"},
	{"postcode": "5690", "placename": "NANBONA"},
	{"postcode": "5690", "placename": "NULLARBOR"},
	{"postcode": "5690", "placename": "NUNDROO"},
	{"postcode": "5690", "placename": "OAK VALLEY"},
	{"postcode": "5690", "placename": "PENONG"},
	{"postcode": "5690", "placename": "THEVENARD"},
	{"postcode": "5690", "placename": "UWORRA"},
	{"postcode": "5690", "placename": "WANDANA"},
	{"postcode": "5690", "placename": "WATRABA"},
	{"postcode": "5690", "placename": "WHITE WELL CORNER"},
	{"postcode": "5690", "placename": "YALATA"},
	{"postcode": "5690", "placename": "YELLABINNA"},
	{"postcode": "5690", "placename": "YUMBARRA"},
	{"postcode": "5700", "placename": "BLANCHE HARBOR"},
	{"postcode": "5700", "placename": "COMMISSARIAT POINT"},
	{"postcode": "5700", "placename": "CULTANA"},
	{"postcode": "5700", "placename": "DAVENPORT"},
	{"postcode": "5700", "placename": "MIRANDA"},
	{"postcode": "5700", "placename": "MUNDALLIO"},
	{"postcode": "5700", "placename": "PORT AUGUSTA"},
	{"postcode": "5700", "placename": "PORT AUGUSTA NORTH"},
	{"postcode": "5700", "placename": "PORT AUGUSTA WEST"},
	{"postcode": "5700", "placename": "PORT PATERSON"},
	{"postcode": "5700", "placename": "WAMI KATA"},
	{"postcode": "5700", "placename": "WILLSDEN"},
	{"postcode": "5700", "placename": "WINNINOWIE"},
	{"postcode": "5701", "placename": "ARKAROOLA VILLAGE"},
	{"postcode": "5701", "placename": "TARCOOLA"},
	{"postcode": "5701", "placename": "WOOLUNDUNGA"},
	{"postcode": "5710", "placename": "COOK"},
	{"postcode": "5710", "placename": "GLENDAMBO"},
	{"postcode": "5710", "placename": "KINGOONYA"},
	{"postcode": "5710", "placename": "NONNING"},
	{"postcode": "5710", "placename": "PORT AUGUSTA"},
	{"postcode": "5710", "placename": "STIRLING NORTH"},
	{"postcode": "5710", "placename": "TARCOOLA"},
	{"postcode": "5713", "placename": "EMEROO"},
	{"postcode": "5713", "placename": "ISLAND LAGOON"},
	{"postcode": "5713", "placename": "KOOTABERRA"},
	{"postcode": "5713", "placename": "LAKE TORRENS"},
	{"postcode": "5713", "placename": "LAKE TORRENS STATION"},
	{"postcode": "5713", "placename": "MOUNT ARDEN"},
	{"postcode": "5713", "placename": "OAKDEN HILLS"},
	{"postcode": "5713", "placename": "PERNATTY"},
	{"postcode": "5713", "placename": "SOUTH GAP"},
	{"postcode": "5713", "placename": "WALLERBERDINA"},
	{"postcode": "5713", "placename": "WILKATANA STATION"},
	{"postcode": "5713", "placename": "WINTABATINYANA"},
	{"postcode": "5713", "placename": "YADLAMALKA"},
	{"postcode": "5715", "placename": "CARRIEWERLOO"},
	{"postcode": "5715", "placename": "ILLEROO"},
	{"postcode": "5715", "placename": "LINCOLN GAP"},
	{"postcode": "5715", "placename": "PANDURRA"},
	{"postcode": "5715", "placename": "WARTAKA"},
	{"postcode": "5715", "placename": "YALYMBOO"},
	{"postcode": "5715", "placename": "YUDNAPINNA"},
	{"postcode": "5717", "placename": "HILTABA"},
	{"postcode": "5717", "placename": "KOKATHA"},
	{"postcode": "5717", "placename": "KOLENDO"},
	{"postcode": "5717", "placename": "KONDOOLKA"},
	{"postcode": "5717", "placename": "LAKE EVERARD"},
	{"postcode": "5717", "placename": "LAKE GAIRDNER"},
	{"postcode": "5717", "placename": "LAKE MACFARLANE"},
	{"postcode": "5717", "placename": "MAHANEWO"},
	{"postcode": "5717", "placename": "MOONAREE"},
	{"postcode": "5717", "placename": "MOUNT IVE"},
	{"postcode": "5717", "placename": "NONNING"},
	{"postcode": "5717", "placename": "SIAM"},
	{"postcode": "5717", "placename": "THURLGA"},
	{"postcode": "5717", "placename": "UNO"},
	{"postcode": "5717", "placename": "YARDEA"},
	{"postcode": "5719", "placename": "BON BON"},
	{"postcode": "5719", "placename": "BULGUNNIA"},
	{"postcode": "5719", "placename": "COMMONWEALTH HILL"},
	{"postcode": "5719", "placename": "COONDAMBO"},
	{"postcode": "5719", "placename": "GLENDAMBO"},
	{"postcode": "5719", "placename": "KINGOONYA"},
	{"postcode": "5719", "placename": "LAKE HARRIS"},
	{"postcode": "5719", "placename": "MULGATHING"},
	{"postcode": "5719", "placename": "WILGENA"},
	{"postcode": "5719", "placename": "WIRRAMINNA"},
	{"postcode": "5720", "placename": "ARCOONA"},
	{"postcode": "5720", "placename": "BILLA KALINA"},
	{"postcode": "5720", "placename": "BOSWORTH"},
	{"postcode": "5720", "placename": "MILLERS CREEK"},
	{"postcode": "5720", "placename": "MOUNT EBA"},
	{"postcode": "5720", "placename": "MOUNT VIVIAN"},
	{"postcode": "5720", "placename": "PARAKYLIA"},
	{"postcode": "5720", "placename": "PIMBA"},
	{"postcode": "5720", "placename": "PURPLE DOWNS"},
	{"postcode": "5720", "placename": "STUARTS CREEK"},
	{"postcode": "5720", "placename": "WOOMERA"},
	{"postcode": "5722", "placename": "ANDAMOOKA"},
	{"postcode": "5722", "placename": "ANDAMOOKA STATION"},
	{"postcode": "5723", "placename": "ALLANDALE STATION"},
	{"postcode": "5723", "placename": "ANNA CREEK"},
	{"postcode": "5723", "placename": "ARCKARINGA"},
	{"postcode": "5723", "placename": "COOBER PEDY"},
	{"postcode": "5723", "placename": "EVELYN DOWNS"},
	{"postcode": "5723", "placename": "INGOMAR"},
	{"postcode": "5723", "placename": "MABEL CREEK"},
	{"postcode": "5723", "placename": "MCDOUALL PEAK"},
	{"postcode": "5723", "placename": "MOUNT BARRY"},
	{"postcode": "5723", "placename": "MOUNT CLARENCE STATION"},
	{"postcode": "5723", "placename": "MOUNT WILLOUGHBY"},
	{"postcode": "5723", "placename": "NILPINNA STATION"},
	{"postcode": "5723", "placename": "WILLIAM CREEK"},
	{"postcode": "5723", "placename": "WINTINNA"},
	{"postcode": "5724", "placename": "MARLA"},
	{"postcode": "5724", "placename": "MINTABIE"},
	{"postcode": "5724", "placename": "WELBOURN HILL"},
	{"postcode": "5725", "placename": "OLYMPIC DAM"},
	{"postcode": "5725", "placename": "ROXBY DOWNS"},
	{"postcode": "5725", "placename": "ROXBY DOWNS STATION"},
	{"postcode": "5730", "placename": "ALPANA"},
	{"postcode": "5730", "placename": "ANGORIGINA"},
	{"postcode": "5730", "placename": "BELTANA"},
	{"postcode": "5730", "placename": "BELTANA STATION"},
	{"postcode": "5730", "placename": "BLINMAN"},
	{"postcode": "5730", "placename": "EDIACARA"},
	{"postcode": "5730", "placename": "GUM CREEK STATION"},
	{"postcode": "5730", "placename": "MOOLOOLOO"},
	{"postcode": "5730", "placename": "MOORILLAH"},
	{"postcode": "5730", "placename": "MOTPENA"},
	{"postcode": "5730", "placename": "MOUNT FALKLAND"},
	{"postcode": "5730", "placename": "NARRINA"},
	{"postcode": "5730", "placename": "NILPENA"},
	{"postcode": "5730", "placename": "ORATUNGA STATION"},
	{"postcode": "5730", "placename": "PARACHILNA"},
	{"postcode": "5730", "placename": "PUTTAPA"},
	{"postcode": "5730", "placename": "WARRAWEENA"},
	{"postcode": "5730", "placename": "WIRREALPA"},
	{"postcode": "5731", "placename": "BOLLARDS LAGOON"},
	{"postcode": "5731", "placename": "COOPERS CREEK"},
	{"postcode": "5731", "placename": "CORDILLO DOWNS"},
	{"postcode": "5731", "placename": "DURHAM DOWNS"},
	{"postcode": "5731", "placename": "FARINA STATION"},
	{"postcode": "5731", "placename": "GIDGEALPA"},
	{"postcode": "5731", "placename": "INNAMINCKA"},
	{"postcode": "5731", "placename": "LEIGH CREEK"},
	{"postcode": "5731", "placename": "LEIGH CREEK STATION"},
	{"postcode": "5731", "placename": "LINDON"},
	{"postcode": "5731", "placename": "LYNDHURST"},
	{"postcode": "5731", "placename": "MERTY MERTY"},
	{"postcode": "5731", "placename": "MOOLAWATANA"},
	{"postcode": "5731", "placename": "MOUNT FREELING"},
	{"postcode": "5731", "placename": "MOUNT LYNDHURST"},
	{"postcode": "5731", "placename": "MULGARIA"},
	{"postcode": "5731", "placename": "MURNPEOWIE"},
	{"postcode": "5731", "placename": "MYRTLE SPRINGS"},
	{"postcode": "5731", "placename": "STRZELECKI DESERT"},
	{"postcode": "5731", "placename": "WITCHELINA"},
	{"postcode": "5732", "placename": "ANGEPENA"},
	{"postcode": "5732", "placename": "ARKAROOLA"},
	{"postcode": "5732", "placename": "BURR WELL"},
	{"postcode": "5732", "placename": "COPLEY"},
	{"postcode": "5732", "placename": "GAMMON RANGES"},
	{"postcode": "5732", "placename": "MANNERS WELL"},
	{"postcode": "5732", "placename": "MOOLAWATANA"},
	{"postcode": "5732", "placename": "MOUNT SERLE"},
	{"postcode": "5732", "placename": "MULGA VIEW"},
	{"postcode": "5732", "placename": "NEPABUNNA"},
	{"postcode": "5732", "placename": "NORTH MOOLOOLOO"},
	{"postcode": "5732", "placename": "PINDA SPRINGS"},
	{"postcode": "5732", "placename": "UMBERATANA"},
	{"postcode": "5732", "placename": "WERTALOONA"},
	{"postcode": "5732", "placename": "WOOLTANA"},
	{"postcode": "5732", "placename": "YANKANINNA"},
	{"postcode": "5733", "placename": "ALTON DOWNS STATION"},
	{"postcode": "5733", "placename": "CALLANNA"},
	{"postcode": "5733", "placename": "CLAYTON STATION"},
	{"postcode": "5733", "placename": "CLIFTON HILLS STATION"},
	{"postcode": "5733", "placename": "COWARIE"},
	{"postcode": "5733", "placename": "DULKANINNA"},
	{"postcode": "5733", "placename": "ETADUNNA"},
	{"postcode": "5733", "placename": "FARINA"},
	{"postcode": "5733", "placename": "KALAMURINA"},
	{"postcode": "5733", "placename": "LAKE EYRE"},
	{"postcode": "5733", "placename": "MARREE"},
	{"postcode": "5733", "placename": "MARREE STATION"},
	{"postcode": "5733", "placename": "MULKA"},
	{"postcode": "5733", "placename": "MULOORINA"},
	{"postcode": "5733", "placename": "MUNDOWDNA"},
	{"postcode": "5733", "placename": "MUNGERANIE"},
	{"postcode": "5733", "placename": "PANDIE PANDIE"},
	{"postcode": "5734", "placename": "CROWN POINT"},
	{"postcode": "5734", "placename": "ERINGA"},
	{"postcode": "5734", "placename": "MACUMBA"},
	{"postcode": "5734", "placename": "MOUNT SARAH"},
	{"postcode": "5734", "placename": "OODNADATTA"},
	{"postcode": "5734", "placename": "SIMPSON DESERT"},
	{"postcode": "5734", "placename": "TODMORDEN"},
	{"postcode": "5734", "placename": "WITJIRA"},
	{"postcode": "5800", "placename": "ADELAIDE"},
	{"postcode": "5810", "placename": "ADELAIDE"},
	{"postcode": "5839", "placename": "ADELAIDE"},
	{"postcode": "5942", "placename": "REGENCY PARK"},
	{"postcode": "5950", "placename": "ADELAIDE AIRPORT"},
	{"postcode": "5950", "placename": "EXPORT PARK"}
]